{
"type": "FeatureCollection",
"name": "Manipur",
"crs": { "type": "name", "properties": { "name": "urn:ogc:def:crs:OGC:1.3:CRS84" } },
"features": [
{ "type": "Feature", "properties": { "GID_1": "IND.21_1", "GID_0": "IND", "COUNTRY": "India", "NAME_1": "Manipur", "VARNAME_1": "NA", "NL_NAME_1": "NA", "TYPE_1": "State", "ENGTYPE_1": "State", "CC_1": "NA", "HASC_1": "IN.MN", "ISO_1": "IN-MN" }, "geometry": { "type": "MultiPolygon", "coordinates": [ [ [ [ 93.744392394999977, 24.001230240000098 ], [ 93.73995208700012, 23.999170304000188 ], [ 93.73280334500015, 24.001808167000036 ], [ 93.726776122, 24.003831865000166 ], [ 93.720207214000084, 24.005569459000014 ], [ 93.712722779000103, 24.005239486000164 ], [ 93.706130982000161, 24.006439209000064 ], [ 93.696990966999977, 24.007471085000191 ], [ 93.686477661000197, 24.009679794000022 ], [ 93.677520752000078, 24.011068344000023 ], [ 93.674446105000186, 24.008089067000128 ], [ 93.667541504000042, 24.005409241000109 ], [ 93.662818908000133, 24.004709244000026 ], [ 93.658805847000167, 24.00724983200007 ], [ 93.65497589000006, 24.009981155 ], [ 93.652442932000099, 24.013509751000129 ], [ 93.644958496000072, 24.014080048000153 ], [ 93.635322572, 24.013380050000137 ], [ 93.627662658000077, 24.015220643000077 ], [ 93.620658875000117, 24.014240265000183 ], [ 93.616302491000056, 24.010740281000096 ], [ 93.61666107200017, 24.002969742000118 ], [ 93.619598387999986, 24.000003815000127 ], [ 93.620079040000178, 23.999521255000161 ], [ 93.620750427000189, 23.995290757000078 ], [ 93.620910644000048, 23.991199493000124 ], [ 93.615936279000152, 23.981470108999986 ], [ 93.61225891100014, 23.977148057000136 ], [ 93.60929107700008, 23.97344970600011 ], [ 93.606147767000095, 23.971368790999975 ], [ 93.603462219000107, 23.969591140000091 ], [ 93.597152711000092, 23.967260361000058 ], [ 93.592636109000182, 23.967990875000112 ], [ 93.58386993300013, 23.968469620000178 ], [ 93.580490112000177, 23.970085144000109 ], [ 93.580062867000095, 23.970291138000107 ], [ 93.577148438000052, 23.977890013999968 ], [ 93.572448731000179, 23.983240127000101 ], [ 93.568840027000192, 23.988670349000131 ], [ 93.563537598000096, 23.989578247000111 ], [ 93.561248779000039, 23.985620499000049 ], [ 93.557258606000175, 23.979660035000165 ], [ 93.557518006000123, 23.970100404000107 ], [ 93.55493164, 23.96521949800001 ], [ 93.546356201000037, 23.963260651000041 ], [ 93.539466858000139, 23.963279724000131 ], [ 93.530502320000039, 23.960779190000153 ], [ 93.524169921000066, 23.954730989000041 ], [ 93.519866944000057, 23.950496672999975 ], [ 93.51941680800013, 23.95005035500003 ], [ 93.515083313000162, 23.947168350000027 ], [ 93.508712769000113, 23.948900223000066 ], [ 93.502540587999988, 23.955780030000085 ], [ 93.495948791000046, 23.957160950000116 ], [ 93.489387513000167, 23.961509704000036 ], [ 93.485771179000096, 23.967580796 ], [ 93.478027344, 23.96949005100015 ], [ 93.472206116000109, 23.970680236000135 ], [ 93.468856811000194, 23.973939896 ], [ 93.466156005000187, 23.979190827000082 ], [ 93.466697693000071, 23.987592697000139 ], [ 93.467391968000072, 23.992019654000046 ], [ 93.467353821000188, 23.992828369000108 ], [ 93.466979981000179, 23.999309540000183 ], [ 93.466140747000168, 24.000240326000096 ], [ 93.463127136000139, 24.003589631000182 ], [ 93.45881652800017, 24.009660721000159 ], [ 93.457366943000068, 24.015068053999983 ], [ 93.453262328000164, 24.022850036000136 ], [ 93.444030761000079, 24.027759551000031 ], [ 93.441116334000071, 24.034719467000173 ], [ 93.439956665000125, 24.043569564000109 ], [ 93.432868958000142, 24.061662675000093 ], [ 93.42473602400014, 24.071710588000087 ], [ 93.420227050000108, 24.076049804000093 ], [ 93.415428163000115, 24.079219818000183 ], [ 93.41050720200019, 24.081670762000101 ], [ 93.404220580000185, 24.084299087999966 ], [ 93.391128539000078, 24.088220596999975 ], [ 93.383361815000114, 24.089321136000024 ], [ 93.37046051100009, 24.092229843999974 ], [ 93.368637084999989, 24.092559815000186 ], [ 93.366432189000193, 24.092969894000134 ], [ 93.361518859000114, 24.100202561000174 ], [ 93.356742858000075, 24.10906982400013 ], [ 93.351432801000101, 24.11241912800017 ], [ 93.346916200000067, 24.112968444000103 ], [ 93.349037169000098, 24.105100632000187 ], [ 93.350898742000027, 24.101568222000139 ], [ 93.353836059000173, 24.097681045000115 ], [ 93.346817017000092, 24.09226989900003 ], [ 93.343582154000046, 24.094360352000081 ], [ 93.339340210000103, 24.093200685000113 ], [ 93.33400726300016, 24.090129853000064 ], [ 93.335830688000158, 24.08537483300006 ], [ 93.335983277000082, 24.084970474000102 ], [ 93.337615967000147, 24.078920364000112 ], [ 93.338867188000052, 24.072320939 ], [ 93.342010498000036, 24.067438125000137 ], [ 93.337348939000094, 24.060939788000098 ], [ 93.336349487000177, 24.0566997520001 ], [ 93.337371825000048, 24.053400040000099 ], [ 93.312545777000082, 24.054130554000153 ], [ 93.298248292000096, 24.051589965000176 ], [ 93.288192748000142, 24.051549911000052 ], [ 93.285369873000036, 24.046520233000081 ], [ 93.276779176000048, 24.04021072400019 ], [ 93.273948670000152, 24.033920287000115 ], [ 93.255287171000191, 24.023790360000135 ], [ 93.256706238000106, 24.028810500000191 ], [ 93.252380370000139, 24.033830643000158 ], [ 93.262329101000034, 24.057729721000157 ], [ 93.263740540000185, 24.057741166000085 ], [ 93.266609192000033, 24.060260774000028 ], [ 93.263732910000101, 24.067789077000043 ], [ 93.263717650999979, 24.072820663000186 ], [ 93.2480163580002, 24.085338592000028 ], [ 93.242332459000181, 24.086570739000081 ], [ 93.236633300000165, 24.084039688000189 ], [ 93.226676941000164, 24.086530685000128 ], [ 93.223838805000184, 24.084011077000071 ], [ 93.222419738999974, 24.081489564000037 ], [ 93.225250244000165, 24.073961258000111 ], [ 93.222427369000116, 24.067672729000037 ], [ 93.221000672000059, 24.061370851000106 ], [ 93.216735840000183, 24.050060273000099 ], [ 93.198257446000184, 24.0524997710001 ], [ 93.194007874000079, 24.056270600000119 ], [ 93.178382873000032, 24.054096223000045 ], [ 93.175521851000099, 24.05369949400017 ], [ 93.16983795200008, 24.05495262300002 ], [ 93.166976928000167, 24.061218261000135 ], [ 93.16986846900005, 24.071279525000023 ], [ 93.169876099000135, 24.075061798000036 ], [ 93.161315918000184, 24.077560425000115 ], [ 93.158462524000186, 24.083818435000069 ], [ 93.147911072000056, 24.08809089600004 ], [ 93.142196655000191, 24.08678817700013 ], [ 93.135086059000173, 24.079210282000133 ], [ 93.135078431000068, 24.072919845 ], [ 93.12937164300007, 24.06408119300005 ], [ 93.120819092000033, 24.060260774000028 ], [ 93.119407654000156, 24.056472779000046 ], [ 93.112312317000089, 24.055191041000057 ], [ 93.110877992000155, 24.050149918000102 ], [ 93.106628418000071, 24.048860550000029 ], [ 93.100921630000016, 24.045089723000046 ], [ 93.099510194000118, 24.048839569000165 ], [ 93.103767396000137, 24.052629471000046 ], [ 93.100929261000033, 24.056390763000024 ], [ 93.102340699000138, 24.062692643000048 ], [ 93.100906372, 24.066450119000081 ], [ 93.102348327000072, 24.074010849000047 ], [ 93.095207215000187, 24.080280303999984 ], [ 93.08950805600017, 24.08405113200007 ], [ 93.085227967000151, 24.090351104000149 ], [ 93.079490661000079, 24.102970123000034 ], [ 93.073776246000023, 24.100490569000044 ], [ 93.065193176000093, 24.094270704999985 ], [ 93.053688049000186, 24.090690613000106 ], [ 93.037696838000159, 24.095180513000173 ], [ 93.034698487000128, 24.09924125800012 ], [ 93.030296326000155, 24.100830078000172 ], [ 93.027297973000145, 24.103639602000101 ], [ 93.021492003000105, 24.101451874000077 ], [ 93.014106750000167, 24.104530336000039 ], [ 93.009681702000137, 24.109952927000109 ], [ 93.00068664600019, 24.115192413000045 ], [ 92.996421814000087, 24.116729737000014 ], [ 92.989295960000106, 24.116331101000071 ], [ 92.984779358000139, 24.114820481000152 ], [ 92.976379394, 24.114820481000152 ], [ 92.974868774000072, 24.117019654000103 ], [ 92.973602294000102, 24.123880387000156 ], [ 92.977561950000165, 24.126390458000117 ], [ 92.986068726000042, 24.128879547000054 ], [ 92.989410400000111, 24.131780625000147 ], [ 92.992866517000039, 24.1403903960001 ], [ 92.990921021000133, 24.146869660000107 ], [ 92.991127015000131, 24.150329590000183 ], [ 92.993080139000085, 24.153179168000065 ], [ 93.000671387000068, 24.156730652000078 ], [ 93.005447389000039, 24.160610199000189 ], [ 93.005500794000056, 24.163211823000154 ], [ 93.003311156000109, 24.174049378000063 ], [ 93.010917662999987, 24.182212829000036 ], [ 93.003097534000176, 24.194311143000107 ], [ 93.003036499000189, 24.197521211000151 ], [ 93.012367248000146, 24.197540284000013 ], [ 93.016616822, 24.200031281000179 ], [ 93.017997742000091, 24.207548141000018 ], [ 93.022293091000108, 24.210060121000026 ], [ 93.023681641000053, 24.217569351000179 ], [ 93.019401550000055, 24.225088120000123 ], [ 93.019409180000139, 24.228849411000169 ], [ 93.026588440000126, 24.232631684000069 ], [ 93.018035889000089, 24.236370086000079 ], [ 93.006706238000163, 24.25395965600012 ], [ 93.006736755000134, 24.262790679999966 ], [ 93.013916016000053, 24.271669388000078 ], [ 93.008216858000083, 24.280479431000117 ], [ 93.011077880000016, 24.288080214999979 ], [ 93.018218995000154, 24.29315948500016 ], [ 93.023918152000192, 24.300741195000057 ], [ 93.035232544, 24.318399430000113 ], [ 93.043373108000139, 24.343389511000055 ], [ 93.031761169000106, 24.34449005100015 ], [ 93.021568299000194, 24.346820832 ], [ 93.019332885000154, 24.358848573000159 ], [ 93.020111084000121, 24.365972519000024 ], [ 93.022087096, 24.374219896000056 ], [ 93.017097471999989, 24.379961015000163 ], [ 93.024353027000188, 24.390470505000167 ], [ 93.000495912000019, 24.403270722000116 ], [ 93.006446838000045, 24.411930085000108 ], [ 93.008895873000085, 24.405370713000082 ], [ 93.015991211000028, 24.402530669999976 ], [ 93.029212952000023, 24.406339646000049 ], [ 93.039169312000126, 24.41113090500005 ], [ 93.039329529000156, 24.417568207000159 ], [ 93.032150268000066, 24.42885971100003 ], [ 93.03674316300004, 24.443941116000076 ], [ 93.037902832000157, 24.461151124000139 ], [ 93.048255920000031, 24.463960648000068 ], [ 93.04852295000012, 24.475482941000109 ], [ 93.045722961000138, 24.481819153000174 ], [ 93.035766602000137, 24.496948242000087 ], [ 93.044326783000088, 24.505800247000025 ], [ 93.040016174000073, 24.510810852000077 ], [ 93.041419982000036, 24.514591216000042 ], [ 93.052825927000072, 24.519649506000064 ], [ 93.052825927000072, 24.524669648000156 ], [ 93.048469543000067, 24.530910493000192 ], [ 93.05130005, 24.537189485000169 ], [ 93.05268097000004, 24.544719696000129 ], [ 93.061218262000182, 24.554779052000072 ], [ 93.065536499000132, 24.547269822000089 ], [ 93.072692870000139, 24.561090470000181 ], [ 93.06111908000014, 24.574832916000048 ], [ 93.071228027000132, 24.57613182 ], [ 93.07845306500019, 24.574911118000102 ], [ 93.087142945000153, 24.571180343000037 ], [ 93.096229553000057, 24.58022117600018 ], [ 93.097267151000096, 24.58254051300014 ], [ 93.104476929000157, 24.582572937000123 ], [ 93.106979369000044, 24.58356094300018 ], [ 93.106750488000046, 24.583959579000123 ], [ 93.104446411000083, 24.587602615000094 ], [ 93.098663330000079, 24.591342925000163 ], [ 93.088546753000116, 24.590030671000079 ], [ 93.079818726000155, 24.592500686999983 ], [ 93.075416565000126, 24.596229554000047 ], [ 93.075386046000176, 24.600000381000029 ], [ 93.076782227000137, 24.603771210000048 ], [ 93.086761474000127, 24.611330032000183 ], [ 93.086730958000089, 24.613821031000157 ], [ 93.0823364270002, 24.617580414000088 ], [ 93.079421998000157, 24.621322632000101 ], [ 93.079353331999982, 24.626340865000088 ], [ 93.082206726000038, 24.627601624000192 ], [ 93.089385987000128, 24.627630233000161 ], [ 93.089302063000105, 24.633890152000049 ], [ 93.084846497, 24.64767074700012 ], [ 93.086257935000106, 24.651439666000101 ], [ 93.089126587000123, 24.652709961000141 ], [ 93.096282958000131, 24.652719499000057 ], [ 93.096260072000177, 24.656482697000172 ], [ 93.097656250000057, 24.659000398000046 ], [ 93.097633361000192, 24.662761689000149 ], [ 93.099037170000088, 24.666530609000063 ], [ 93.103302002000191, 24.671560286999977 ], [ 93.104705810000155, 24.67534256100015 ], [ 93.104690552000136, 24.679100037000183 ], [ 93.101821900000118, 24.68035125800003 ], [ 93.097541809000063, 24.67782020500016 ], [ 93.093246460000046, 24.676549913000031 ], [ 93.091796875000114, 24.677810669000053 ], [ 93.091796875000114, 24.680320740000184 ], [ 93.093200683000077, 24.684080123000115 ], [ 93.093193053000164, 24.687852860000078 ], [ 93.090286254000091, 24.692869187000042 ], [ 93.084526062000066, 24.697870254000065 ], [ 93.083068848000096, 24.701641083000027 ], [ 93.080207825000116, 24.704141618000051 ], [ 93.075866699000073, 24.710390091000079 ], [ 93.078697204000093, 24.714170456000147 ], [ 93.088783264000085, 24.709190369999988 ], [ 93.093032838000113, 24.715482712000153 ], [ 93.094436646000133, 24.720508575000053 ], [ 93.092987061000144, 24.724260331000153 ], [ 93.094429016, 24.724279404000072 ], [ 93.097290040000132, 24.728050231000054 ], [ 93.097259521000183, 24.731809617000067 ], [ 93.104415894000169, 24.736869812000123 ], [ 93.107246399000132, 24.741899490000094 ], [ 93.1057968140002, 24.745660781000026 ], [ 93.102920532000041, 24.746900559000096 ], [ 93.102935792000096, 24.743150711000169 ], [ 93.101501465000126, 24.741880417 ], [ 93.098640441000043, 24.744380951000153 ], [ 93.101470948000042, 24.74941063 ], [ 93.100036621000072, 24.75066947900018 ], [ 93.100028991000158, 24.754440308000142 ], [ 93.104278565000072, 24.763240815000074 ], [ 93.105667115000188, 24.769531250000171 ], [ 93.102806091000105, 24.773290634000034 ], [ 93.101325989000031, 24.778310776000069 ], [ 93.107063293000067, 24.78334045400004 ], [ 93.105628968000133, 24.784601211000165 ], [ 93.105583191000164, 24.788370133000058 ], [ 93.108459473000153, 24.790880203000086 ], [ 93.112701417000096, 24.802209854000068 ], [ 93.10978698800011, 24.809740067000064 ], [ 93.111221313000044, 24.812261582000076 ], [ 93.119796752000184, 24.817310334000183 ], [ 93.122673035000048, 24.819829942000069 ], [ 93.122695923000151, 24.814809799000102 ], [ 93.119842529000152, 24.811029434000091 ], [ 93.121276856000065, 24.808530807000182 ], [ 93.127006530000017, 24.808540345000097 ], [ 93.131340026000146, 24.806041718000188 ], [ 93.137062074000198, 24.811090470000124 ], [ 93.139945984000065, 24.804809571000135 ], [ 93.142852783000137, 24.801059722000105 ], [ 93.14428711000005, 24.799800873000152 ], [ 93.148612975000106, 24.798561095000025 ], [ 93.151481629000159, 24.796051025 ], [ 93.152931213000045, 24.793539047000024 ], [ 93.152946473000043, 24.789779664000093 ], [ 93.15724182200006, 24.792310715000156 ], [ 93.161537171000134, 24.797340393000127 ], [ 93.165817261000029, 24.798610688000167 ], [ 93.168678283000133, 24.801128388000109 ], [ 93.17442321700014, 24.803670884000155 ], [ 93.175872802000072, 24.797388078000097 ], [ 93.177299499000071, 24.796119691 ], [ 93.178756715000077, 24.796140672000092 ], [ 93.180175781000059, 24.79865074200012 ], [ 93.180175781000059, 24.80241966300008 ], [ 93.18158722000004, 24.804939269000045 ], [ 93.185897827000076, 24.804950715000075 ], [ 93.190200806000064, 24.806221009000012 ], [ 93.193077088000166, 24.806230545000119 ], [ 93.194496155000081, 24.808750153000062 ], [ 93.197357177000185, 24.81126022300009 ], [ 93.198776246000136, 24.815040588000102 ], [ 93.195907593000186, 24.816289901 ], [ 93.191596984000114, 24.822561265000047 ], [ 93.193000793000181, 24.826320648000149 ], [ 93.197288513000046, 24.833881378000115 ], [ 93.192977906000124, 24.833869935000109 ], [ 93.19297027600004, 24.836381912000036 ], [ 93.194389343000125, 24.837640762000092 ], [ 93.195831298000144, 24.837640762000092 ], [ 93.198707580000132, 24.836389543000053 ], [ 93.201553346000196, 24.84017181500019 ], [ 93.200126649000197, 24.841430664000143 ], [ 93.198699952000197, 24.840160370000035 ], [ 93.197273255000198, 24.840160370000035 ], [ 93.19438171500002, 24.843919753000137 ], [ 93.195800781000059, 24.846441269000024 ], [ 93.201553346000196, 24.843940734000171 ], [ 93.201522827000076, 24.850219726000148 ], [ 93.198646545000145, 24.852729798000155 ], [ 93.197196961000088, 24.856491090000134 ], [ 93.200073242000144, 24.857759477 ], [ 93.205841064000083, 24.85526085000015 ], [ 93.208702088000166, 24.856531144000087 ], [ 93.2101364130001, 24.859041214000115 ], [ 93.214286805000143, 24.861949921000189 ], [ 93.216186524000193, 24.864690781000093 ], [ 93.219062806000125, 24.869720460000167 ], [ 93.221946716000048, 24.870992662000106 ], [ 93.224807740000131, 24.874780654000176 ], [ 93.22908782900015, 24.877300262000063 ], [ 93.226219177000132, 24.881069184000182 ], [ 93.22908782900015, 24.884840011000165 ], [ 93.233390808000138, 24.88484954900008 ], [ 93.234832763000156, 24.88989067000017 ], [ 93.230491639000149, 24.894901275000052 ], [ 93.233383180000033, 24.894910813000138 ], [ 93.233383180000033, 24.898691177000103 ], [ 93.236221313000101, 24.902450561000137 ], [ 93.241950989000088, 24.901220321000096 ], [ 93.243377686000088, 24.903741836000108 ], [ 93.243362427000136, 24.907501220000142 ], [ 93.241889953000168, 24.911270142000035 ], [ 93.238990783000077, 24.915029525000136 ], [ 93.240432740000131, 24.916280745999984 ], [ 93.24185943700013, 24.915040971 ], [ 93.250457765000135, 24.915061952000087 ], [ 93.253257751000149, 24.918830871000068 ], [ 93.250198365000131, 24.930080413000042 ], [ 93.244506836000085, 24.930080413000042 ], [ 93.243049622000115, 24.931329727000048 ], [ 93.247200012000121, 24.9363403320001 ], [ 93.248497010000165, 24.94009971700018 ], [ 93.247077942000146, 24.94009971700018 ], [ 93.241439820000153, 24.937589645000173 ], [ 93.240036011000086, 24.937580109000066 ], [ 93.239982603999977, 24.938842774000022 ], [ 93.241317749000075, 24.9413394930001 ], [ 93.244079591000173, 24.943840028000125 ], [ 93.246932982000089, 24.943849563000128 ], [ 93.249839783000141, 24.942600250000055 ], [ 93.254119874000196, 24.942619323000145 ], [ 93.251106263000111, 24.946348190000037 ], [ 93.250923157000102, 24.95009994600008 ], [ 93.249389648000147, 24.952592850000144 ], [ 93.249237060000098, 24.955080032000069 ], [ 93.253540039000086, 24.955089570000098 ], [ 93.259506226000155, 24.951360703000034 ], [ 93.262413025000058, 24.951370240000074 ], [ 93.260826111000199, 24.953870773000062 ], [ 93.26058960000006, 24.958871842000065 ], [ 93.263328553000122, 24.963880539000172 ], [ 93.263236999000185, 24.966379166000024 ], [ 93.258712769000113, 24.972650528000088 ], [ 93.252906800000176, 24.972629547 ], [ 93.252876281000056, 24.975149155000111 ], [ 93.254325866000158, 24.978919984000129 ], [ 93.251525880000145, 24.981420517000117 ], [ 93.253021240000066, 24.982660294000141 ], [ 93.253257751000149, 24.986370086000136 ], [ 93.252021790000128, 24.98880958500007 ], [ 93.255256652000071, 24.992401123000093 ], [ 93.256958007000094, 24.996021271000131 ], [ 93.257057189000136, 24.998470308000151 ], [ 93.255622864000031, 24.999710083000139 ], [ 93.255676269000048, 25.002201080000134 ], [ 93.257110596000189, 25.000940323000179 ], [ 93.261436462000177, 25.00092125000009 ], [ 93.263320923000038, 25.004238128000054 ], [ 93.262451172000112, 25.006029129000012 ], [ 93.2599029550002, 25.006450654000162 ], [ 93.25800323600015, 25.004209519000085 ], [ 93.257682800999987, 25.003501890999985 ], [ 93.257102966000105, 25.003190994000136 ], [ 93.256462096000178, 25.003110885000183 ], [ 93.255805968000061, 25.00325966000014 ], [ 93.255332946000181, 25.003641128000083 ], [ 93.255210877000138, 25.004209519000085 ], [ 93.253479004000098, 25.006370545000038 ], [ 93.25181579600013, 25.004180908000137 ], [ 93.251213073000088, 25.003480912000157 ], [ 93.250640869000165, 25.003160477000165 ], [ 93.250000001000103, 25.002950668000153 ], [ 93.249359131000176, 25.002872467000145 ], [ 93.248687744000108, 25.002901078000093 ], [ 93.248077393000187, 25.003030777000106 ], [ 93.247467042000039, 25.003280641000174 ], [ 93.24694824300019, 25.003631592000147 ], [ 93.246696471000121, 25.004167557000187 ], [ 93.249160767000092, 25.013160706000065 ], [ 93.251716614000088, 25.016019820000054 ], [ 93.248840332000157, 25.018800736000117 ], [ 93.253829956000175, 25.021350860000041 ], [ 93.257789611000135, 25.021741868000106 ], [ 93.258369446000074, 25.02519989000001 ], [ 93.255607606000183, 25.028680801000178 ], [ 93.259849548000147, 25.032070160000046 ], [ 93.263809203000108, 25.035921098000188 ], [ 93.263916016000167, 25.038909913000111 ], [ 93.262916566000058, 25.041839600000117 ], [ 93.268356324000194, 25.044090271000073 ], [ 93.269462585000156, 25.046590805000051 ], [ 93.267799377000017, 25.048809052000024 ], [ 93.268180848000043, 25.049680710000189 ], [ 93.284492492000197, 25.051549912000098 ], [ 93.286872864000145, 25.046800613000187 ], [ 93.291893006, 25.047090530999981 ], [ 93.29698181200007, 25.047670366000091 ], [ 93.299339295000038, 25.050460816000054 ], [ 93.300086975000056, 25.05260086200019 ], [ 93.302406312000187, 25.051940918000128 ], [ 93.30245971700009, 25.048189163000131 ], [ 93.304595947000109, 25.047992706000116 ], [ 93.304252625000117, 25.056030273000033 ], [ 93.308929443000181, 25.058521272000121 ], [ 93.306076049000183, 25.064420701000017 ], [ 93.308792114000084, 25.070592880000106 ], [ 93.310791015, 25.072629928000083 ], [ 93.312721252000131, 25.077959060000126 ], [ 93.322341918000177, 25.088380814000175 ], [ 93.323631286000079, 25.091670990000068 ], [ 93.329505921000077, 25.09449958800019 ], [ 93.335777283000084, 25.09584045500003 ], [ 93.339172364000035, 25.106409073000123 ], [ 93.340461730000129, 25.11441993800014 ], [ 93.344352722000053, 25.116149902000075 ], [ 93.344360352000137, 25.121330262000072 ], [ 93.346443175000104, 25.125089646000106 ], [ 93.349212647000058, 25.125408173000039 ], [ 93.347045898000147, 25.127460480000138 ], [ 93.346076965000179, 25.12986946000018 ], [ 93.348899841000105, 25.134790421000105 ], [ 93.346862792000081, 25.137701035000021 ], [ 93.351013184000124, 25.144540787000039 ], [ 93.348556519000169, 25.153490067000121 ], [ 93.348838805000071, 25.157171249000044 ], [ 93.347358703000168, 25.163890839000032 ], [ 93.349151612000071, 25.166730880000102 ], [ 93.353073121000079, 25.181800843000076 ], [ 93.360816956000178, 25.191959382000107 ], [ 93.362220764000142, 25.195608138000182 ], [ 93.368537903000174, 25.200050354000041 ], [ 93.37056732100001, 25.203590392000024 ], [ 93.369583130000024, 25.208061219000172 ], [ 93.378089905000195, 25.216100693000158 ], [ 93.379501342000196, 25.220790863000047 ], [ 93.3819885260001, 25.223869325000067 ], [ 93.384796142000027, 25.225730897000062 ], [ 93.385513306000064, 25.228557587000182 ], [ 93.387626648000094, 25.232040405000021 ], [ 93.387100220000093, 25.2423915870001 ], [ 93.388717651000036, 25.245920181000031 ], [ 93.394592284000055, 25.250299453000025 ], [ 93.403572082000153, 25.263071060000073 ], [ 93.406341552000129, 25.264080049000142 ], [ 93.412055970000097, 25.26345062200005 ], [ 93.420707703000176, 25.26626014600015 ], [ 93.42330932700014, 25.272161483000048 ], [ 93.423316955000018, 25.277910232000067 ], [ 93.426429748000089, 25.281061172000022 ], [ 93.438636780000081, 25.286550522000141 ], [ 93.444816590000187, 25.292310715000042 ], [ 93.451972960000035, 25.294748306000031 ], [ 93.459968567000033, 25.294731140000067 ], [ 93.465591431, 25.299051285000189 ], [ 93.474021911000193, 25.309280395000087 ], [ 93.475135803000114, 25.299680710000132 ], [ 93.474632262000114, 25.292419434000067 ], [ 93.472587586000088, 25.285440445000063 ], [ 93.476753234000114, 25.279039383000111 ], [ 93.483383179000043, 25.27663993800013 ], [ 93.487541199000191, 25.275930404 ], [ 93.494895934000056, 25.278720855000074 ], [ 93.504379272999984, 25.275770186999978 ], [ 93.510787964000087, 25.275608062000174 ], [ 93.504173278999986, 25.253381730000058 ], [ 93.50514221200018, 25.244131089000177 ], [ 93.508430481000175, 25.243709565000131 ], [ 93.516426086000138, 25.244770049000124 ], [ 93.520606994000048, 25.248781205000171 ], [ 93.529357909000112, 25.248359680000192 ], [ 93.541206359000114, 25.245380403000127 ], [ 93.547172546000184, 25.248491288000082 ], [ 93.554710389000093, 25.250528336000059 ], [ 93.563133239000138, 25.246589662000133 ], [ 93.570098878000124, 25.235609055000111 ], [ 93.570762634000175, 25.232450485000072 ], [ 93.57485199100006, 25.22755050700016 ], [ 93.578201295000042, 25.225690843000109 ], [ 93.581649779000088, 25.226009370000099 ], [ 93.585845948000099, 25.222311019000074 ], [ 93.588058472000057, 25.222169875000134 ], [ 93.590286254000148, 25.219949723000127 ], [ 93.591979981000065, 25.213909150000063 ], [ 93.59484100300017, 25.211130143000105 ], [ 93.592857362000075, 25.206670761000055 ], [ 93.593032838000056, 25.203912735000131 ], [ 93.597099303000164, 25.204299928000125 ], [ 93.601036073000103, 25.202392578000058 ], [ 93.604286195000043, 25.20432090900016 ], [ 93.608016967000196, 25.202051163000135 ], [ 93.612579346000132, 25.20619010900009 ], [ 93.621147155000187, 25.224912644000142 ], [ 93.628906250999989, 25.23574829100005 ], [ 93.631866455000136, 25.242919922000056 ], [ 93.638092041000107, 25.250398636000114 ], [ 93.64311981200018, 25.260011673000179 ], [ 93.643547057000092, 25.265882493000106 ], [ 93.649909973000035, 25.269119263 ], [ 93.651367188000108, 25.273660660000189 ], [ 93.651618958000142, 25.279020309000146 ], [ 93.665611266000042, 25.298429489000057 ], [ 93.664749146000133, 25.304241181000066 ], [ 93.66609191900011, 25.308280945000035 ], [ 93.672943115000123, 25.311510087000045 ], [ 93.673957825000059, 25.317281722000189 ], [ 93.672073364000198, 25.328710555000157 ], [ 93.6839218140002, 25.329629898000121 ], [ 93.687126159, 25.331211090000011 ], [ 93.691452027000196, 25.347419739000088 ], [ 93.692779542000153, 25.361589431000084 ], [ 93.699981689000197, 25.359422684000151 ], [ 93.711585998000146, 25.358089447000054 ], [ 93.718040466, 25.361600876000068 ], [ 93.718978882000044, 25.370359422000149 ], [ 93.723106385000051, 25.37558174100019 ], [ 93.731002808000142, 25.380371094000054 ], [ 93.73979187000009, 25.384418488000108 ], [ 93.741317749000132, 25.389440536000109 ], [ 93.740066528000114, 25.395179750000182 ], [ 93.741989135000097, 25.399919510000132 ], [ 93.746665954000093, 25.405710221000049 ], [ 93.76033783000014, 25.414119720000144 ], [ 93.764419556000178, 25.418130875000145 ], [ 93.781066894000162, 25.424711228000035 ], [ 93.78053283600002, 25.429500580000024 ], [ 93.784477234000065, 25.431938172000116 ], [ 93.788108825999984, 25.435880662000159 ], [ 93.790206910000052, 25.443380356000034 ], [ 93.793746948000035, 25.448659896000038 ], [ 93.798362732000044, 25.453931808000164 ], [ 93.802429200000063, 25.460409164000168 ], [ 93.805229186000076, 25.463420868000128 ], [ 93.808998108000196, 25.465589524000166 ], [ 93.813888549000069, 25.484729766000044 ], [ 93.807609558000195, 25.495559693000189 ], [ 93.804046631, 25.499029159000031 ], [ 93.797248840000066, 25.504381180000109 ], [ 93.788467408000031, 25.506490708 ], [ 93.773391724000192, 25.497840881000116 ], [ 93.769348144999981, 25.496772766000106 ], [ 93.765792846000068, 25.499900817000025 ], [ 93.764289855000186, 25.515481949000105 ], [ 93.769317626000031, 25.517709732000128 ], [ 93.768180847000053, 25.525291444000061 ], [ 93.768951416000107, 25.530710221000106 ], [ 93.770973206000065, 25.536020279000184 ], [ 93.770637513000111, 25.540279389000148 ], [ 93.771820068000181, 25.540809631000172 ], [ 93.779487610000047, 25.538049697000076 ], [ 93.807846069000163, 25.544519425000146 ], [ 93.815940858000147, 25.545448304 ], [ 93.819717407000041, 25.544389724000155 ], [ 93.823349, 25.548162461000118 ], [ 93.825042725000174, 25.555999756000119 ], [ 93.833259582000096, 25.55642128 ], [ 93.833473205000132, 25.561372757000186 ], [ 93.836486816000161, 25.563060761000031 ], [ 93.844207763000099, 25.561691285000052 ], [ 93.852317810000102, 25.558649063000075 ], [ 93.862236022000104, 25.557529450000061 ], [ 93.878372193000189, 25.561981201000037 ], [ 93.891960145000041, 25.568420410000044 ], [ 93.900238038000055, 25.5687294 ], [ 93.90484619200015, 25.567428589000144 ], [ 93.910896300000161, 25.567529679000131 ], [ 93.917091370000094, 25.566720963000023 ], [ 93.919326783000031, 25.564029694000169 ], [ 93.930122375999986, 25.565389633000166 ], [ 93.943519591000154, 25.563432693999971 ], [ 93.945167541000046, 25.562639237000155 ], [ 93.957389831000057, 25.556751251000037 ], [ 93.965217590000179, 25.556577683000057 ], [ 93.972648621000133, 25.561180116000116 ], [ 93.97785186800013, 25.566160202000049 ], [ 93.980468750000114, 25.571252823000179 ], [ 94.000610351000148, 25.573881149000044 ], [ 94.0074462890002, 25.569850922000057 ], [ 94.010421754000106, 25.571311951000098 ], [ 94.011596679000036, 25.57274818500008 ], [ 94.012283326000102, 25.575298310000164 ], [ 94.011756896000065, 25.579090118000181 ], [ 94.007827759000122, 25.587528228000053 ], [ 94.007652284000073, 25.590940476000128 ], [ 94.01039886500007, 25.595399857000075 ], [ 94.014732361000142, 25.596130371000129 ], [ 94.025512696000135, 25.593389510000065 ], [ 94.027267456000175, 25.587989807000156 ], [ 94.033409118000122, 25.584701538000104 ], [ 94.034896851000042, 25.581489563 ], [ 94.037918090000176, 25.581928253000058 ], [ 94.039161683000088, 25.583030700000052 ], [ 94.039009094, 25.579860687000064 ], [ 94.043617249000192, 25.577480317000095 ], [ 94.04599762100014, 25.580949783000108 ], [ 94.054122924000183, 25.576759339000148 ], [ 94.06469726500012, 25.566370011000117 ], [ 94.069419861000085, 25.558980943000165 ], [ 94.080039978000116, 25.561599731000115 ], [ 94.085952758000133, 25.559730530000081 ], [ 94.094963073000031, 25.546440125000117 ], [ 94.096199036000087, 25.541719437000097 ], [ 94.092521668000074, 25.53796958900017 ], [ 94.092109679000032, 25.532730103000119 ], [ 94.106079101000148, 25.528900146000183 ], [ 94.128509522000058, 25.525880814000118 ], [ 94.138732911000091, 25.523700715000132 ], [ 94.145233154000152, 25.527639389000058 ], [ 94.148200990000021, 25.531690597000079 ], [ 94.151840210000046, 25.541851043000179 ], [ 94.152877807000039, 25.547840118000181 ], [ 94.160110472999975, 25.5552501680001 ], [ 94.163528443000189, 25.549921036000057 ], [ 94.167907716000059, 25.547010422000142 ], [ 94.179542541000046, 25.550189971 ], [ 94.182769775000054, 25.553251267000178 ], [ 94.191848755000024, 25.550951004000183 ], [ 94.19486999500009, 25.552429199000187 ], [ 94.193908692000036, 25.542198181000117 ], [ 94.190139770000144, 25.53462982200017 ], [ 94.190727233000132, 25.53078079200003 ], [ 94.199249267000084, 25.522769929000049 ], [ 94.206886292000036, 25.513950348000151 ], [ 94.206901551000101, 25.511640549000049 ], [ 94.212928772999987, 25.50817108200016 ], [ 94.212806702000137, 25.502820969000027 ], [ 94.214851378, 25.500240326000153 ], [ 94.219856263000167, 25.499629974000072 ], [ 94.222976684000116, 25.496772766000106 ], [ 94.2291412350001, 25.496009827000137 ], [ 94.231742860000168, 25.498310090000132 ], [ 94.252059937000126, 25.4990711210001 ], [ 94.257263183000077, 25.503419877000056 ], [ 94.266937256000176, 25.502439499000104 ], [ 94.274147034000066, 25.502990722000163 ], [ 94.279869080000083, 25.505451202000188 ], [ 94.286743164000086, 25.511699677000138 ], [ 94.290740966999977, 25.509519578000152 ], [ 94.298995971000181, 25.500709535000169 ], [ 94.302642822000053, 25.494632720000141 ], [ 94.308982849000131, 25.4938011160001 ], [ 94.313537598000153, 25.494470597000145 ], [ 94.320686340000123, 25.499280930000168 ], [ 94.329010010000104, 25.508350373000155 ], [ 94.364669801, 25.521490096000093 ], [ 94.388542175000111, 25.536569595000174 ], [ 94.404487609000114, 25.54089927800004 ], [ 94.410896302000026, 25.543518066000161 ], [ 94.416809082000043, 25.541940689000114 ], [ 94.420272827000019, 25.542650223000066 ], [ 94.425590516000113, 25.552919389000067 ], [ 94.426391601000034, 25.561450959000069 ], [ 94.425102233000132, 25.572999955000114 ], [ 94.422378540000068, 25.575990677000163 ], [ 94.425659179000036, 25.581470489000026 ], [ 94.430023193000125, 25.592721939000171 ], [ 94.437736512000185, 25.595859528000176 ], [ 94.444282532000045, 25.596010208 ], [ 94.447822570000199, 25.598041536000039 ], [ 94.449272156000063, 25.601089478000176 ], [ 94.474037171000191, 25.621641159000035 ], [ 94.491180418999988, 25.619798660000072 ], [ 94.491111756000123, 25.618650437000042 ], [ 94.493415832000153, 25.614330292000091 ], [ 94.499298095000199, 25.616502761000163 ], [ 94.499938965000126, 25.618818284000156 ], [ 94.500000000000114, 25.61885643100004 ], [ 94.501831056000071, 25.620021820999966 ], [ 94.505371094000054, 25.616992951000043 ], [ 94.507797241000162, 25.618949890000181 ], [ 94.508666990999984, 25.626899719999983 ], [ 94.510902406000127, 25.629909516000168 ], [ 94.514511108000136, 25.630491255999971 ], [ 94.524192811000148, 25.643432618000134 ], [ 94.528182983000079, 25.644290925 ], [ 94.530662537000069, 25.642589568 ], [ 94.531547546000184, 25.650129319000087 ], [ 94.539543153000125, 25.65108108600009 ], [ 94.544738769000162, 25.657541276000075 ], [ 94.551780701000155, 25.662460327000019 ], [ 94.552223205000189, 25.667411803999983 ], [ 94.565078735000156, 25.680820465000181 ], [ 94.567993164000143, 25.69222068900001 ], [ 94.573013306000064, 25.697650911000096 ], [ 94.578613281, 25.695999146000133 ], [ 94.582977296000081, 25.693201065000153 ], [ 94.587051391999978, 25.69189071600016 ], [ 94.595619201000034, 25.691280365000011 ], [ 94.596946716, 25.686910630000057 ], [ 94.589965821000192, 25.681249620000074 ], [ 94.588127137000072, 25.677270889000113 ], [ 94.585327148000147, 25.674850465000077 ], [ 94.58737182700014, 25.671800614000063 ], [ 94.585586548000094, 25.670009613000104 ], [ 94.583442688, 25.665220261000115 ], [ 94.585220336000191, 25.661779405000175 ], [ 94.582046509000065, 25.660610200000178 ], [ 94.581352234000065, 25.65739250200005 ], [ 94.576789856000062, 25.652830123000115 ], [ 94.577232361000142, 25.64833069000008 ], [ 94.576087951000147, 25.644701005 ], [ 94.586936951000041, 25.646591186000023 ], [ 94.595199586000035, 25.643850327000166 ], [ 94.594551086000024, 25.642650604000096 ], [ 94.590507506000165, 25.640270234000127 ], [ 94.583770753000067, 25.634490966000158 ], [ 94.578506469000047, 25.626251219999972 ], [ 94.576919557000053, 25.620372772000167 ], [ 94.572822570000085, 25.611312867000095 ], [ 94.568626403000053, 25.607791900000166 ], [ 94.566909790000068, 25.604101182000136 ], [ 94.565147400000058, 25.602600097 ], [ 94.559570312000119, 25.594110489000116 ], [ 94.555740357000047, 25.585811615000068 ], [ 94.561538696000071, 25.578330994000055 ], [ 94.560409546000074, 25.567989350000062 ], [ 94.564659120000158, 25.567939758000023 ], [ 94.561378479000041, 25.560510635000071 ], [ 94.562896728000169, 25.549510957000166 ], [ 94.559867858000018, 25.545709611000063 ], [ 94.563476562, 25.539672851000091 ], [ 94.558273316000111, 25.534879684000032 ], [ 94.56125640800019, 25.530691147000141 ], [ 94.558998107000093, 25.524339677000057 ], [ 94.557418822999978, 25.512769700000149 ], [ 94.568176270000038, 25.506589890000043 ], [ 94.574592590000123, 25.505229949000068 ], [ 94.585006713000041, 25.496870040000147 ], [ 94.587196351000159, 25.492450715000189 ], [ 94.590843202000201, 25.489749909000182 ], [ 94.594886779000035, 25.488149644000032 ], [ 94.597366333000195, 25.486259460000099 ], [ 94.607482909000055, 25.482440949000079 ], [ 94.625343323000038, 25.469089508000025 ], [ 94.632972718000076, 25.465658188000134 ], [ 94.648231506000172, 25.46162033100012 ], [ 94.656455994000112, 25.458600999000055 ], [ 94.658737183000142, 25.457050324000079 ], [ 94.665977478000116, 25.455400467000061 ], [ 94.669761657000151, 25.455360412000061 ], [ 94.682426453000176, 25.459730149000052 ], [ 94.682296752000184, 25.456590653000148 ], [ 94.682052613000167, 25.450500489000035 ], [ 94.679656983000143, 25.442401885000152 ], [ 94.679122924000126, 25.432931901000131 ], [ 94.678115844000104, 25.426530839000065 ], [ 94.676246644000173, 25.420589448000101 ], [ 94.673828125000171, 25.416200637000145 ], [ 94.670951843000012, 25.412530900000149 ], [ 94.658798218000129, 25.409515381000119 ], [ 94.656272888000103, 25.408891677000042 ], [ 94.649192811000034, 25.406351091000147 ], [ 94.644416810000166, 25.401609421000046 ], [ 94.643844605000197, 25.40029335000014 ], [ 94.641769408000187, 25.39902115000001 ], [ 94.638237000000117, 25.393510819000028 ], [ 94.634956359000171, 25.392351150000081 ], [ 94.631179810000049, 25.387290954999969 ], [ 94.62741851800007, 25.37466812100007 ], [ 94.62760925200007, 25.362070083000049 ], [ 94.627708434000112, 25.35539817800003 ], [ 94.622116090000134, 25.336759567000172 ], [ 94.621620179000047, 25.336057664000123 ], [ 94.618980408000198, 25.331930161000116 ], [ 94.615196228000059, 25.325201035000021 ], [ 94.613159180000139, 25.32196044900013 ], [ 94.609573364000084, 25.313520431000086 ], [ 94.606887816000096, 25.308317185000192 ], [ 94.601921081000114, 25.298700333999989 ], [ 94.598678589000031, 25.289070130000084 ], [ 94.598876953000115, 25.28112983799997 ], [ 94.598091126000043, 25.274639129000036 ], [ 94.599258423000038, 25.266870500000039 ], [ 94.597167968, 25.25696182300004 ], [ 94.593536378000124, 25.246168137000154 ], [ 94.591926575000059, 25.237430573000154 ], [ 94.588729858000136, 25.229879379000124 ], [ 94.586585998000032, 25.225030899000046 ], [ 94.585357665000117, 25.215749742000128 ], [ 94.592086792000089, 25.20548057600007 ], [ 94.597587585000042, 25.200010298999985 ], [ 94.60167694200004, 25.195190431000185 ], [ 94.60887145900017, 25.191047669000056 ], [ 94.613128661000189, 25.189479828000117 ], [ 94.617385863000152, 25.189798356000153 ], [ 94.622680664000086, 25.191280365000125 ], [ 94.630920410000101, 25.190380096000183 ], [ 94.63385772700002, 25.187200547000089 ], [ 94.638137818000075, 25.181560517000094 ], [ 94.64354705900007, 25.176538467000057 ], [ 94.647781372000054, 25.174411775000124 ], [ 94.657676696000067, 25.17242050200008 ], [ 94.666961669000102, 25.168180465000034 ], [ 94.677436829000158, 25.16500091600011 ], [ 94.681159974000082, 25.161268233999976 ], [ 94.68718719400016, 25.15787124700006 ], [ 94.69362640300011, 25.159521102000042 ], [ 94.698638916000164, 25.16063117900012 ], [ 94.70347595200019, 25.159780502 ], [ 94.708168030000081, 25.153850556000179 ], [ 94.713577271000077, 25.149909974000082 ], [ 94.728881835000038, 25.143711091000114 ], [ 94.735816955000075, 25.142829895000034 ], [ 94.741943360000107, 25.139419555000131 ], [ 94.745658874000071, 25.136590958000113 ], [ 94.745216370000037, 25.126840591000075 ], [ 94.745689393000191, 25.118709565000017 ], [ 94.745292664000146, 25.11123085100013 ], [ 94.745399474000067, 25.106899261000024 ], [ 94.745536803000164, 25.101661683000088 ], [ 94.748146058000145, 25.089899064 ], [ 94.749778747000107, 25.079950333000113 ], [ 94.751007080000079, 25.075429917 ], [ 94.75063324000007, 25.070642472000145 ], [ 94.750717163000161, 25.063518524000074 ], [ 94.749237061000088, 25.057939530000169 ], [ 94.747718811000027, 25.049278259000175 ], [ 94.74568176300005, 25.044429779000097 ], [ 94.745010376000039, 25.039478302000134 ], [ 94.742980956000167, 25.030109405000076 ], [ 94.742210387000114, 25.025249482000049 ], [ 94.739456176000033, 25.020492555000033 ], [ 94.735191346000136, 25.012689591000083 ], [ 94.734466552000185, 25.011787414000139 ], [ 94.726097107000044, 25.001319886000033 ], [ 94.713188172000173, 24.993690491000166 ], [ 94.705802917000085, 24.98357009900019 ], [ 94.703140259, 24.978271484000118 ], [ 94.703025818000071, 24.977369309000153 ], [ 94.701896668000074, 24.968441010000106 ], [ 94.703811645000144, 24.963550569000063 ], [ 94.705726623000146, 24.959640503000173 ], [ 94.709136963000049, 24.955820084000152 ], [ 94.713577271000077, 24.952978134000034 ], [ 94.717147828, 24.946451188000026 ], [ 94.719070435000049, 24.942470551000099 ], [ 94.71467590400016, 24.93952941900011 ], [ 94.705856324000138, 24.934280395000087 ], [ 94.701507568000011, 24.927560807000134 ], [ 94.700973510000097, 24.926319122000166 ], [ 94.693794251000156, 24.909711838000078 ], [ 94.693008422000048, 24.907890321000082 ], [ 94.69209289600019, 24.899862290000101 ], [ 94.688941956000065, 24.895021438000128 ], [ 94.686012269, 24.892442704000132 ], [ 94.679710389000149, 24.886899947000074 ], [ 94.672012328000108, 24.882190704000038 ], [ 94.661628724000195, 24.877420426000072 ], [ 94.656837464000091, 24.873598099000105 ], [ 94.657920838000166, 24.867170335000083 ], [ 94.656089782000038, 24.862850190000131 ], [ 94.65445709300019, 24.861244202000137 ], [ 94.64816284300008, 24.855070113000068 ], [ 94.641220093000072, 24.848739624000075 ], [ 94.639678955000136, 24.845819474 ], [ 94.637847900000054, 24.842359542999986 ], [ 94.634788514000036, 24.829309464000175 ], [ 94.635406495000097, 24.823060990000101 ], [ 94.635360718000129, 24.822492599000043 ], [ 94.634788514000036, 24.814760209000099 ], [ 94.632446289000143, 24.810920715000066 ], [ 94.627326966000169, 24.804290771000183 ], [ 94.62483215400016, 24.795810699000015 ], [ 94.625305177000087, 24.786029816000166 ], [ 94.625366212000074, 24.784799575000079 ], [ 94.62961578400018, 24.777271270000028 ], [ 94.633018493000066, 24.772811891000117 ], [ 94.633308412000133, 24.764961243000187 ], [ 94.625045777000139, 24.754020691000164 ], [ 94.624084472000106, 24.752853393000066 ], [ 94.621215820000032, 24.749361037000085 ], [ 94.617675782000049, 24.744070054000076 ], [ 94.612388611000199, 24.733560562000093 ], [ 94.612190247000171, 24.732799531000069 ], [ 94.611343385000055, 24.72960090600003 ], [ 94.610847474000138, 24.722112655000103 ], [ 94.607215882000048, 24.719949722000138 ], [ 94.599372864000031, 24.71527290500012 ], [ 94.590988159, 24.710929871000133 ], [ 94.584510803, 24.714862823000146 ], [ 94.586502076000045, 24.722339631000068 ], [ 94.58580017100013, 24.730028154000024 ], [ 94.581657409000172, 24.731340408000051 ], [ 94.577606200999981, 24.73019027700019 ], [ 94.574562074000085, 24.725618361999977 ], [ 94.573440551000147, 24.722021102999975 ], [ 94.575370789000146, 24.718570709000119 ], [ 94.57556152300009, 24.71751022400008 ], [ 94.576560975, 24.712060929000131 ], [ 94.57061767600004, 24.711570739000081 ], [ 94.567390443000136, 24.713949203000027 ], [ 94.562477112000124, 24.718330383000136 ], [ 94.556655885000112, 24.719190598000182 ], [ 94.550987244000112, 24.716539384000043 ], [ 94.546623230000193, 24.707460404000074 ], [ 94.549392700000169, 24.70217704900017 ], [ 94.550765991000048, 24.699569702000133 ], [ 94.552940368000066, 24.692779541000107 ], [ 94.550743103000116, 24.674919129000102 ], [ 94.547149659000127, 24.666460038000139 ], [ 94.540596008000136, 24.649011612000095 ], [ 94.537719727000081, 24.64376068100006 ], [ 94.531486511000196, 24.632390976000181 ], [ 94.52079773000014, 24.616790772000115 ], [ 94.507530213000109, 24.601549148000061 ], [ 94.502418518000184, 24.59635925300006 ], [ 94.500000000000114, 24.594295501000033 ], [ 94.498237610000103, 24.592790603000026 ], [ 94.489875793000067, 24.589160920000154 ], [ 94.485336303000167, 24.582241059000069 ], [ 94.478286743000069, 24.579050064000057 ], [ 94.472526550000168, 24.57793998700015 ], [ 94.465492248000032, 24.575559616000135 ], [ 94.459548950000169, 24.566761018000079 ], [ 94.458297729000151, 24.562910080000108 ], [ 94.45584106400014, 24.555320740000127 ], [ 94.450157165000178, 24.54273033200019 ], [ 94.4454727170002, 24.531488418000151 ], [ 94.440490722000163, 24.520429612000157 ], [ 94.436576843000068, 24.515949250000176 ], [ 94.435127258000136, 24.511079789000064 ], [ 94.432388307000053, 24.504240036000169 ], [ 94.429595948000042, 24.4933395380001 ], [ 94.421546936000198, 24.490510940000036 ], [ 94.420219422000173, 24.490417481000179 ], [ 94.408981323000148, 24.489631654000107 ], [ 94.403419494000104, 24.487779617000058 ], [ 94.406181336000031, 24.481588364000174 ], [ 94.41149902300009, 24.469650268000066 ], [ 94.403160095000032, 24.465030671000022 ], [ 94.400451660000044, 24.462070465000068 ], [ 94.407966615000191, 24.453790665000156 ], [ 94.408912659000123, 24.444120407000071 ], [ 94.407485962000123, 24.431221009000183 ], [ 94.403907775000107, 24.421140672000035 ], [ 94.399169923000159, 24.413141250000024 ], [ 94.391639710000163, 24.409690858000033 ], [ 94.390937805000078, 24.409509659000037 ], [ 94.383407592000083, 24.40757942200014 ], [ 94.374389649000079, 24.404760362000104 ], [ 94.366806031000181, 24.40455055200016 ], [ 94.365341187000126, 24.399679184000149 ], [ 94.367523192000135, 24.398319245000152 ], [ 94.3763198850001, 24.392829894999977 ], [ 94.38610839800009, 24.38462066600016 ], [ 94.383369445000199, 24.379409789000192 ], [ 94.37754821700014, 24.371059418000186 ], [ 94.369361878000177, 24.361909867000179 ], [ 94.355735780000032, 24.346481323999967 ], [ 94.351753236000036, 24.342010499000025 ], [ 94.347068786000023, 24.33942031800018 ], [ 94.340011596000181, 24.338962556000126 ], [ 94.334815979000098, 24.338621140000157 ], [ 94.326347350000106, 24.338949203000027 ], [ 94.325218200000108, 24.334169389000124 ], [ 94.32685852100019, 24.330640794000089 ], [ 94.327537536000136, 24.323009491000107 ], [ 94.327896118000126, 24.318990708000058 ], [ 94.328247070000032, 24.306070328000033 ], [ 94.327987672000063, 24.292430878000175 ], [ 94.321777344000168, 24.27594947800003 ], [ 94.314788819, 24.259750367000038 ], [ 94.313247681000064, 24.254079819000026 ], [ 94.307258606, 24.24864006100006 ], [ 94.30377960300001, 24.245481491000191 ], [ 94.295143128000177, 24.239850997000076 ], [ 94.291610718000129, 24.223079681000115 ], [ 94.290374755000073, 24.220008850000113 ], [ 94.28765869200015, 24.213270187000091 ], [ 94.285072326000034, 24.202619551999987 ], [ 94.284446717000037, 24.191619874000082 ], [ 94.283729553, 24.179880142000059 ], [ 94.279739379000091, 24.175931932000026 ], [ 94.278610229000094, 24.175615312000161 ], [ 94.26650238100018, 24.172241211000141 ], [ 94.262718201000041, 24.16774749800004 ], [ 94.260108949000198, 24.155759812000042 ], [ 94.259925843000133, 24.154661180000119 ], [ 94.257987977000198, 24.142948151000041 ], [ 94.259056092000037, 24.131650924000155 ], [ 94.259231568000132, 24.119819642000152 ], [ 94.256721497, 24.106649400000094 ], [ 94.258338928000171, 24.101591111000118 ], [ 94.260047913000108, 24.096240998000042 ], [ 94.259696960000099, 24.089559555000108 ], [ 94.25403594900007, 24.07768249500009 ], [ 94.250221253000063, 24.070478440000102 ], [ 94.247177123000085, 24.062562942000113 ], [ 94.246452331000171, 24.062900543000069 ], [ 94.239936828999987, 24.065950393000151 ], [ 94.233070374000022, 24.066900253000028 ], [ 94.235221863000163, 24.05866050700007 ], [ 94.236770630000137, 24.056678771000065 ], [ 94.243576049000012, 24.047950745000151 ], [ 94.245323181000174, 24.044242859000121 ], [ 94.231597900000054, 24.021480562000136 ], [ 94.225601197000117, 24.014120102000106 ], [ 94.220306396000183, 24.006029130000115 ], [ 94.215400696000188, 23.997461319000081 ], [ 94.210296630000073, 23.992361070000072 ], [ 94.201301575000059, 23.977968215000146 ], [ 94.194496154000149, 23.965009690000102 ], [ 94.193542480000133, 23.951200486000062 ], [ 94.196830749000128, 23.944040298000061 ], [ 94.195968628000116, 23.937721252000131 ], [ 94.190422058000024, 23.934061050000025 ], [ 94.18342590300017, 23.93711090100004 ], [ 94.181800842000087, 23.937820434000173 ], [ 94.176902770000197, 23.938840867000181 ], [ 94.170776368000077, 23.935092926000095 ], [ 94.169517516000042, 23.928689956000028 ], [ 94.168960570000138, 23.911500931000035 ], [ 94.168228149000186, 23.889139175000082 ], [ 94.165039062, 23.864860535000162 ], [ 94.161460876000092, 23.852779389000091 ], [ 94.157669068000075, 23.85194778500005 ], [ 94.155448914000033, 23.851459502000068 ], [ 94.14714813300003, 23.856119156000148 ], [ 94.146148681000113, 23.85609245400002 ], [ 94.1392974850001, 23.855899810000096 ], [ 94.135147096000139, 23.846071244000086 ], [ 94.128829957000164, 23.842779160000191 ], [ 94.1228713980002, 23.842731476000154 ], [ 94.122642517000145, 23.842729567999982 ], [ 94.114791870000147, 23.852451324000072 ], [ 94.114761353000176, 23.853162765000036 ], [ 94.114112855000144, 23.866630555000029 ], [ 94.111610413000051, 23.870880127000135 ], [ 94.104187012000182, 23.877170562 ], [ 94.100967407000155, 23.889022827000076 ], [ 94.096092223000198, 23.893571853000026 ], [ 94.090606689000197, 23.89450073200004 ], [ 94.085456847000046, 23.893180847000167 ], [ 94.075736999000185, 23.893060684000091 ], [ 94.068481445000089, 23.895620347000033 ], [ 94.060928345000036, 23.897302628000091 ], [ 94.056610108000086, 23.897600174000161 ], [ 94.051116943000068, 23.900430679000181 ], [ 94.049316406000173, 23.907390595000152 ], [ 94.046913146000122, 23.913370133000171 ], [ 94.043220521000194, 23.918001175000029 ], [ 94.037940978000108, 23.920560838000142 ], [ 94.034103393000123, 23.922109605000117 ], [ 94.027748108000139, 23.92604255700013 ], [ 94.021492005000084, 23.931491852000079 ], [ 94.017692567000097, 23.933950424999978 ], [ 94.01336669900013, 23.934520722 ], [ 94.008041382000101, 23.933200837000129 ], [ 94.001525879000042, 23.931159974000138 ], [ 93.995437622000168, 23.931539535000184 ], [ 93.989631652000128, 23.932029725000064 ], [ 93.981582642000092, 23.933259965000047 ], [ 93.976387024000076, 23.935260774000142 ], [ 93.96938324000007, 23.933940887000119 ], [ 93.962242125999978, 23.937149048000038 ], [ 93.961791992000087, 23.943389893000131 ], [ 93.959968567000089, 23.946920395000063 ], [ 93.95378112700007, 23.950199127000076 ], [ 93.941619872000103, 23.952791213000125 ], [ 93.935806275000175, 23.953371048000065 ], [ 93.926376343000129, 23.955410003000111 ], [ 93.920967102000134, 23.956779479999966 ], [ 93.913902283000084, 23.957450867000034 ], [ 93.907020569000167, 23.957139969000082 ], [ 93.902076722000118, 23.95561027500014 ], [ 93.896080018000077, 23.954828263000081 ], [ 93.891036987000177, 23.951780320000069 ], [ 93.887062073000095, 23.947469711 ], [ 93.881561280000142, 23.947139741000058 ], [ 93.877021790000072, 23.94688034100011 ], [ 93.873168945000089, 23.943918227000154 ], [ 93.866226197000117, 23.937919616000045 ], [ 93.848632812000062, 23.938079834000177 ], [ 93.837547303000065, 23.932081223000068 ], [ 93.828216553, 23.931400298000142 ], [ 93.815986633000136, 23.929828644000111 ], [ 93.809288024000182, 23.932611465000036 ], [ 93.808059691000039, 23.933120729000109 ], [ 93.805732727000077, 23.937370300000055 ], [ 93.8053131100001, 23.947219849000135 ], [ 93.803565978000108, 23.951110839000023 ], [ 93.801139832000104, 23.955551147000051 ], [ 93.797218323000095, 23.956649781000181 ], [ 93.79428863600009, 23.96282005300003 ], [ 93.793548584000121, 23.967510223000147 ], [ 93.785621642000081, 23.969440461000147 ], [ 93.779342651000036, 23.977870941000106 ], [ 93.773490906, 23.982400895000126 ], [ 93.770278931000121, 23.990011215000038 ], [ 93.766586303000111, 23.996980666000184 ], [ 93.762222291000171, 24.00414085400007 ], [ 93.756942749000132, 24.009492875000092 ], [ 93.74661254900019, 24.008541108000145 ], [ 93.744392394999977, 24.001230240000098 ] ] ] ] } }
]
}
