{
"type": "FeatureCollection",
"name": "Nagaland",
"crs": { "type": "name", "properties": { "name": "urn:ogc:def:crs:OGC:1.3:CRS84" } },
"features": [
{ "type": "Feature", "properties": { "GID_1": "IND.24_1", "GID_0": "IND", "COUNTRY": "India", "NAME_1": "Nagaland", "VARNAME_1": "NA", "NL_NAME_1": "NA", "TYPE_1": "State", "ENGTYPE_1": "State", "CC_1": "NA", "HASC_1": "IN.NL", "ISO_1": "IN-NL" }, "geometry": { "type": "MultiPolygon", "coordinates": [ [ [ [ 93.45796966600011, 25.3300514230001 ], [ 93.461936950000052, 25.336589814000092 ], [ 93.457908631000123, 25.340919495000151 ], [ 93.45188903900015, 25.344190598000125 ], [ 93.453742981000062, 25.348119737000104 ], [ 93.462318420000031, 25.35886955300009 ], [ 93.466262817000143, 25.361730575000024 ], [ 93.478218078000168, 25.379882813000052 ], [ 93.477287292000085, 25.386009217000151 ], [ 93.473937989000149, 25.393110275000083 ], [ 93.467185973000142, 25.40306091400015 ], [ 93.463256836000198, 25.410961152000141 ], [ 93.465408325000169, 25.415870666999979 ], [ 93.465148925000165, 25.423402787000043 ], [ 93.461868286000083, 25.434698104000176 ], [ 93.456871032000151, 25.441949844000135 ], [ 93.44359588500015, 25.450609207000127 ], [ 93.434959411000193, 25.45477295000012 ], [ 93.42751312200005, 25.45526123000019 ], [ 93.422019959000181, 25.454799653000123 ], [ 93.417106629000102, 25.452791214000115 ], [ 93.402915954000036, 25.459182739000028 ], [ 93.395919799000183, 25.464120865000041 ], [ 93.390419006000059, 25.469169617000148 ], [ 93.391906738000046, 25.474201203000121 ], [ 93.39103698700012, 25.478042603000176 ], [ 93.391311645000087, 25.481430054000043 ], [ 93.390502930000082, 25.485628128000087 ], [ 93.387100220000093, 25.490310670000099 ], [ 93.386367798000038, 25.493350983000028 ], [ 93.383041382000158, 25.49756813 ], [ 93.371818542000085, 25.501131057 ], [ 93.371147155000017, 25.505149841 ], [ 93.366897584000071, 25.507869720000087 ], [ 93.365020751000088, 25.510139466000112 ], [ 93.366821290000132, 25.512872697000034 ], [ 93.364723207000168, 25.516168594000192 ], [ 93.360046387000125, 25.520322799000098 ], [ 93.357566834000011, 25.527669906000028 ], [ 93.354179383000144, 25.531190873000128 ], [ 93.350166320000199, 25.533670427000118 ], [ 93.352340699000081, 25.537570954000159 ], [ 93.349227906000181, 25.538328170000113 ], [ 93.344581603000051, 25.536079407000102 ], [ 93.340393067000093, 25.537290574000053 ], [ 93.335746764000135, 25.545410157000163 ], [ 93.331741334000185, 25.546810150000056 ], [ 93.333381653000117, 25.549020768 ], [ 93.341262817000086, 25.554859162000071 ], [ 93.345466614000031, 25.561120988000027 ], [ 93.348312378000116, 25.563219071000162 ], [ 93.354393005000077, 25.565200807000167 ], [ 93.360702516000117, 25.560438156000032 ], [ 93.364181519000113, 25.560649871000066 ], [ 93.365982056000178, 25.56326103300006 ], [ 93.365158082, 25.569761276000122 ], [ 93.369438170000137, 25.570259094000107 ], [ 93.373420715000066, 25.569171906 ], [ 93.37599182200006, 25.571041108000145 ], [ 93.37683868400012, 25.573740005000104 ], [ 93.376487733000147, 25.577310562000036 ], [ 93.382698059000063, 25.576179504000038 ], [ 93.384742737000181, 25.577920913000128 ], [ 93.385032654000099, 25.581199646000073 ], [ 93.383110046000184, 25.582799912000155 ], [ 93.382400513000164, 25.584751130000143 ], [ 93.390632629000038, 25.589099884000063 ], [ 93.390052796000134, 25.594720840000093 ], [ 93.400199889000135, 25.596281051000119 ], [ 93.406837463000045, 25.596479415000033 ], [ 93.409248353000066, 25.600410462000127 ], [ 93.409637451000094, 25.604101182000136 ], [ 93.407226563000108, 25.606491089000087 ], [ 93.407638550000172, 25.609420777000025 ], [ 93.409049989000152, 25.611690521000071 ], [ 93.412277222000114, 25.613679886000057 ], [ 93.416778564000026, 25.614889145 ], [ 93.414871216000165, 25.616640092000068 ], [ 93.41829681500019, 25.621059417000026 ], [ 93.422470093000129, 25.622261048000098 ], [ 93.427536010000154, 25.63145828200004 ], [ 93.431022644000166, 25.629201889000171 ], [ 93.434181214000034, 25.629869462000045 ], [ 93.4390869140002, 25.632339478000119 ], [ 93.439186096000071, 25.634399414000029 ], [ 93.441520691000051, 25.634780885000112 ], [ 93.444396972999982, 25.638042450000057 ], [ 93.446792602000073, 25.638811111000109 ], [ 93.449935912000115, 25.634931564000055 ], [ 93.451980591000051, 25.637479782000185 ], [ 93.459358216000055, 25.633129120000092 ], [ 93.461959838000041, 25.633390427000165 ], [ 93.461219788000051, 25.63655090300017 ], [ 93.458602906000067, 25.63842010500008 ], [ 93.457138062000013, 25.640590667000083 ], [ 93.460700989000031, 25.641548157000102 ], [ 93.465568542000199, 25.644191743000192 ], [ 93.468528748000153, 25.643760681 ], [ 93.474777221000124, 25.644290925 ], [ 93.475936890000071, 25.647989274000054 ], [ 93.483352661000197, 25.645769120000011 ], [ 93.483596802000079, 25.651760101000036 ], [ 93.487213134000115, 25.650470735000113 ], [ 93.490722656000059, 25.653438569000173 ], [ 93.490196229000105, 25.655969620000064 ], [ 93.493942262000189, 25.655260087000102 ], [ 93.499916077000194, 25.656520844000056 ], [ 93.502082826000162, 25.662019729000178 ], [ 93.508293152000078, 25.666810990000045 ], [ 93.510192871000186, 25.67102050799997 ], [ 93.520286559000056, 25.683670043000063 ], [ 93.519386292000092, 25.685970306000058 ], [ 93.51683807500001, 25.688070297000024 ], [ 93.522727966, 25.693201065000153 ], [ 93.525939941000104, 25.699672698000143 ], [ 93.528556824000191, 25.693769454000176 ], [ 93.530570983000132, 25.692699432000097 ], [ 93.53149414100011, 25.694005967000123 ], [ 93.537979126000153, 25.703199386000051 ], [ 93.543556214000091, 25.701700211000116 ], [ 93.544418335000103, 25.705900192000058 ], [ 93.545928955000079, 25.710189819000163 ], [ 93.548812866, 25.714700700000094 ], [ 93.549781799000186, 25.718971252000131 ], [ 93.546195983000132, 25.721519470000146 ], [ 93.544837952000137, 25.726970672000164 ], [ 93.546699524000132, 25.734470368000189 ], [ 93.549880981, 25.732440949000022 ], [ 93.556922913000051, 25.737739564000151 ], [ 93.556266785000105, 25.741928101000042 ], [ 93.561943054000153, 25.740949630000159 ], [ 93.565483094000172, 25.741340638 ], [ 93.57006072900009, 25.751739503000067 ], [ 93.569252014000085, 25.755010606000099 ], [ 93.573417664000146, 25.756610871000078 ], [ 93.573822022000172, 25.759660721000159 ], [ 93.5732498160001, 25.760799408000139 ], [ 93.583770751000088, 25.757749557000125 ], [ 93.587188721000075, 25.759450912000091 ], [ 93.587120056000174, 25.765550613000073 ], [ 93.588226318000068, 25.76815033000014 ], [ 93.592666626000096, 25.766241075000153 ], [ 93.593711852000069, 25.764289856000119 ], [ 93.598342896000077, 25.768360139000151 ], [ 93.602752686000088, 25.770820617000027 ], [ 93.605567932000156, 25.767459870000039 ], [ 93.605712892000042, 25.772630692000121 ], [ 93.608070372999975, 25.776870728000119 ], [ 93.61141204900008, 25.776491165000039 ], [ 93.622329713000113, 25.779830932000095 ], [ 93.623558045000152, 25.783920288000047 ], [ 93.621131897000168, 25.785230636999984 ], [ 93.623817443000121, 25.790428160999966 ], [ 93.626953125000057, 25.791601181000033 ], [ 93.627532959000064, 25.798629760000097 ], [ 93.629798888000039, 25.79998016400009 ], [ 93.628997803000118, 25.804399491000083 ], [ 93.633346557000039, 25.805240632000164 ], [ 93.634056092000037, 25.809970856 ], [ 93.63611602900005, 25.813680648 ], [ 93.640296935000094, 25.81343078600014 ], [ 93.640998840000179, 25.817920684 ], [ 93.644355775000065, 25.819570541000189 ], [ 93.64849090600012, 25.823970795000093 ], [ 93.652359008000076, 25.822820664000062 ], [ 93.656738281000173, 25.826351167000098 ], [ 93.660827637000125, 25.824380874000042 ], [ 93.668609619000051, 25.82463073800011 ], [ 93.669509889000096, 25.828792571000122 ], [ 93.672561645000201, 25.828121185000157 ], [ 93.678062439000087, 25.828870774000109 ], [ 93.682876588000056, 25.835750580000024 ], [ 93.682502747000115, 25.840700149000156 ], [ 93.692016600999978, 25.844129562000148 ], [ 93.690536499000132, 25.847568513000056 ], [ 93.693771363000053, 25.847249986000065 ], [ 93.697853089000091, 25.851312637000035 ], [ 93.703590393000184, 25.853500366000105 ], [ 93.703636170000152, 25.849700928000175 ], [ 93.702377319000163, 25.846990586000061 ], [ 93.70548248200015, 25.848630906000096 ], [ 93.706436157000098, 25.853290559000072 ], [ 93.690902709000056, 25.889270783000086 ], [ 93.685829163000164, 25.904939652000053 ], [ 93.687683105000076, 25.909440995000125 ], [ 93.697677611000131, 25.917068482000161 ], [ 93.705062867000152, 25.921279907000155 ], [ 93.712509156000124, 25.922670365000101 ], [ 93.716506958000139, 25.921720505000053 ], [ 93.728942871000129, 25.928398133000087 ], [ 93.736450196000192, 25.930538179000052 ], [ 93.750091552000185, 25.937280655000166 ], [ 93.75184631400009, 25.936370850000117 ], [ 93.752021790000185, 25.939601898000092 ], [ 93.749412536000136, 25.942050933000132 ], [ 93.758850098000096, 25.948690414000168 ], [ 93.76278686500018, 25.954929352000192 ], [ 93.768417359000068, 25.955049515000098 ], [ 93.770256042000085, 25.953500747000191 ], [ 93.769546509000065, 25.957990647000088 ], [ 93.773017884000126, 25.966020584000034 ], [ 93.778816223000035, 25.963251114 ], [ 93.780281067000089, 25.960609436000141 ], [ 93.785186767000084, 25.958299637000039 ], [ 93.786605836000149, 25.954231262000121 ], [ 93.789421081000114, 25.952581407000139 ], [ 93.789192200000116, 25.949010849000103 ], [ 93.786598206000065, 25.947441101000095 ], [ 93.789405822000049, 25.946020127000111 ], [ 93.790679932000103, 25.944190979000098 ], [ 93.791419984000072, 25.940050125000141 ], [ 93.79326629600007, 25.936740875000112 ], [ 93.78861999500009, 25.932960510000044 ], [ 93.793212891000167, 25.930980682000154 ], [ 93.793609619000108, 25.926040650000175 ], [ 93.792266846000132, 25.922519683000075 ], [ 93.796302795000031, 25.918191910000189 ], [ 93.798332215000073, 25.909692765000159 ], [ 93.79811096200018, 25.906288147000168 ], [ 93.795730591000108, 25.901210784999989 ], [ 93.795143128000063, 25.898040771000069 ], [ 93.791847229000155, 25.894912719999979 ], [ 93.791458131000127, 25.890058517000057 ], [ 93.787452698000095, 25.878929138 ], [ 93.788276672000052, 25.875720978000118 ], [ 93.790641785000048, 25.873781204000011 ], [ 93.791816712000184, 25.869691850000095 ], [ 93.785781860000043, 25.866899491000027 ], [ 93.785285949000126, 25.863260269000023 ], [ 93.78147125300012, 25.859270097000092 ], [ 93.78359222500012, 25.853929519000189 ], [ 93.782966613000042, 25.851400375000026 ], [ 93.783805847000053, 25.849960328000122 ], [ 93.779823303000057, 25.846309662000067 ], [ 93.781089782000095, 25.844640731000084 ], [ 93.782592773000033, 25.838220596000099 ], [ 93.784523011000033, 25.835781098000041 ], [ 93.787345886000139, 25.827962875000026 ], [ 93.788757324000187, 25.826019286000076 ], [ 93.790702820000035, 25.820800782000106 ], [ 93.7913208020002, 25.816030503000036 ], [ 93.795761108000079, 25.814350129000104 ], [ 93.807586668999988, 25.816337585000042 ], [ 93.811576843000125, 25.821269989000143 ], [ 93.818840026000032, 25.826229096000191 ], [ 93.821372985000096, 25.832401275000109 ], [ 93.824302673000034, 25.847091676000105 ], [ 93.832740783000077, 25.856250763000048 ], [ 93.842338562000066, 25.862609863000046 ], [ 93.851707459000181, 25.862970353000037 ], [ 93.868728637, 25.855409623000071 ], [ 93.873626709000121, 25.850919723 ], [ 93.882736206000061, 25.845909118000122 ], [ 93.888549805000082, 25.8524608620001 ], [ 93.891616822000117, 25.858640672000149 ], [ 93.893409728000165, 25.864810944000169 ], [ 93.898612977000141, 25.863750459000073 ], [ 93.901840211000035, 25.871030808 ], [ 93.913825990000078, 25.881769181000095 ], [ 93.915901184000177, 25.88766288700009 ], [ 93.923851012000171, 25.889802933000055 ], [ 93.934631347000163, 25.891429901000038 ], [ 93.94019317600015, 25.900960923000127 ], [ 93.948356628000056, 25.90120124900011 ], [ 93.959838866000098, 25.905250549000129 ], [ 93.960754394, 25.905855180000174 ], [ 93.969169616000158, 25.911422730000027 ], [ 93.971977235000168, 25.917539597000143 ], [ 93.97939300500019, 25.919679642000176 ], [ 93.982681274000072, 25.926269531000173 ], [ 93.971092223000142, 25.944852829000183 ], [ 93.970848084000124, 25.953260421000039 ], [ 93.969207762999986, 25.960840226000187 ], [ 93.956008911000197, 25.974189759000126 ], [ 93.958045959000174, 25.98157119800004 ], [ 93.960586548000151, 25.997009278000064 ], [ 93.958976746000189, 26.00245857200008 ], [ 93.955986023000094, 26.004570008000144 ], [ 93.954887389000135, 26.007329942000069 ], [ 93.95838165300006, 26.011890411000024 ], [ 93.962661743000183, 26.022159577000082 ], [ 93.96312713500015, 26.033351899000138 ], [ 93.965888977000191, 26.042400361000034 ], [ 93.972633363000114, 26.04496193000017 ], [ 93.974502563000044, 26.052160263000076 ], [ 93.980812074000141, 26.058631896000065 ], [ 93.991119384000115, 26.072639465000066 ], [ 93.989387513000111, 26.074119567000139 ], [ 93.98602295000012, 26.083568572000047 ], [ 93.986427307000099, 26.088300704000119 ], [ 93.990966797, 26.08949089000015 ], [ 93.99249267600004, 26.092781066999976 ], [ 93.992172241000105, 26.097829818000037 ], [ 93.994132995000143, 26.106088638000188 ], [ 93.999572753000109, 26.108470917000034 ], [ 94.00216674700016, 26.111379623000175 ], [ 94.00213623000019, 26.114860536000151 ], [ 93.99986267100013, 26.115909576999968 ], [ 93.9949569690001, 26.115701675000025 ], [ 93.991241455000193, 26.118120194000028 ], [ 93.992820739000138, 26.120269775000168 ], [ 93.996482848000142, 26.122369766000077 ], [ 93.996612549000133, 26.128139496000188 ], [ 93.998329162000175, 26.129358293000053 ], [ 93.998306274000015, 26.130979539000066 ], [ 93.993263245000151, 26.132818222000026 ], [ 93.99075317400019, 26.133871079000187 ], [ 93.99320220900006, 26.137390137000068 ], [ 93.996276856000179, 26.137411118000102 ], [ 93.999656677000132, 26.136499405000052 ], [ 94.003097533000073, 26.139020921000167 ], [ 94.005226135000157, 26.141860961000134 ], [ 94.006362916000171, 26.147239686000091 ], [ 94.002906799000129, 26.15133857800015 ], [ 93.999656677000132, 26.158241271000065 ], [ 94.004348754000148, 26.164070129000095 ], [ 94.003898621000076, 26.169380188000048 ], [ 94.00480651800018, 26.173271180000143 ], [ 94.008766174000073, 26.180530547999979 ], [ 94.013000487, 26.186281205 ], [ 94.021957397, 26.19145965600012 ], [ 94.026618958000142, 26.197149277000051 ], [ 94.031097412000179, 26.199390412000128 ], [ 94.035736085000167, 26.203189850000058 ], [ 94.036819458000195, 26.209720611000137 ], [ 94.036560059000124, 26.217710495000063 ], [ 94.040466309000067, 26.223510742000087 ], [ 94.038169861000142, 26.229511261000027 ], [ 94.04178619400011, 26.233890534000068 ], [ 94.044219970000199, 26.23996925400013 ], [ 94.049133300000165, 26.250211716000081 ], [ 94.052856445000089, 26.255790710000042 ], [ 94.064636231000065, 26.261770248000062 ], [ 94.070472718000076, 26.260030746000041 ], [ 94.076019287000065, 26.269239424999967 ], [ 94.07781982400013, 26.275350571000104 ], [ 94.076820373000089, 26.285200118000148 ], [ 94.080062867000152, 26.28881073000008 ], [ 94.084442140000192, 26.288600922000114 ], [ 94.087226868000073, 26.290420533000145 ], [ 94.09028625600007, 26.297130585000048 ], [ 94.098075866000102, 26.302940369000055 ], [ 94.102676392000092, 26.308691024000098 ], [ 94.1044769290001, 26.322040559000186 ], [ 94.108047486000032, 26.326400756000055 ], [ 94.111289978000116, 26.326049805000082 ], [ 94.118408204000048, 26.322719574000132 ], [ 94.128723145000038, 26.323249816000157 ], [ 94.119361878000063, 26.33049011300011 ], [ 94.119369507000044, 26.333700181000154 ], [ 94.123970032000159, 26.335910797000111 ], [ 94.135658265000075, 26.33821869000019 ], [ 94.138771058000145, 26.341552734000174 ], [ 94.142646790000185, 26.342130661000112 ], [ 94.14383697500017, 26.340200425000091 ], [ 94.142242431000057, 26.336040498000102 ], [ 94.146713258000034, 26.335420609000039 ], [ 94.149322510000104, 26.339080810000098 ], [ 94.154533387000072, 26.339981079999973 ], [ 94.164520264000089, 26.339340210000103 ], [ 94.172149657000148, 26.344409943000073 ], [ 94.175506592000147, 26.344219208000027 ], [ 94.179283142000145, 26.350839616000144 ], [ 94.179992675000165, 26.354120255000055 ], [ 94.175338744000101, 26.355131150000147 ], [ 94.169380188000048, 26.354061127000136 ], [ 94.167671205000147, 26.353309632000048 ], [ 94.164466857000036, 26.360120774000166 ], [ 94.173576354000147, 26.367578506000086 ], [ 94.175605774000189, 26.371759414000167 ], [ 94.175491334000128, 26.374450683000191 ], [ 94.174049376000198, 26.377822876000039 ], [ 94.179092407000098, 26.388721466000106 ], [ 94.17694091900006, 26.399560929000188 ], [ 94.176841737000018, 26.413410186000078 ], [ 94.174011230000076, 26.420890809000014 ], [ 94.176521302000083, 26.428070068000125 ], [ 94.175758361000078, 26.43180084300019 ], [ 94.186546327000087, 26.460510253000052 ], [ 94.201118470000097, 26.469900131000031 ], [ 94.20936584400016, 26.483722688000171 ], [ 94.211486816000161, 26.489849090000121 ], [ 94.223617554000043, 26.500570298000071 ], [ 94.228919983000083, 26.503261566000162 ], [ 94.239891052000019, 26.511430741000083 ], [ 94.244827270000087, 26.516920089000052 ], [ 94.252052307000042, 26.527732850000064 ], [ 94.253318786000136, 26.532529830000101 ], [ 94.26257324200003, 26.543949128000122 ], [ 94.27674102800006, 26.558839798000065 ], [ 94.282287597999982, 26.563539506000097 ], [ 94.289787292000028, 26.564109802000019 ], [ 94.288909911000189, 26.559900284999969 ], [ 94.285308837000116, 26.558240890000093 ], [ 94.284835815000065, 26.555362701999968 ], [ 94.285621642000194, 26.54656982500012 ], [ 94.284942627000191, 26.540290834000132 ], [ 94.285621642000194, 26.534091951000164 ], [ 94.289062500000114, 26.525171280000052 ], [ 94.288787843000023, 26.518318177000083 ], [ 94.287071227000126, 26.514961242000084 ], [ 94.287239075000173, 26.508520127000111 ], [ 94.290237426000147, 26.49596977200008 ], [ 94.292427063000048, 26.49003028900006 ], [ 94.293922424000073, 26.480741501000125 ], [ 94.303306580000083, 26.467260362000161 ], [ 94.310981750000053, 26.466060638000044 ], [ 94.313476562000062, 26.465000153000119 ], [ 94.316513062000126, 26.462930679000124 ], [ 94.324302674000194, 26.470701218000102 ], [ 94.324783325000055, 26.472209931000179 ], [ 94.323883057000046, 26.479379655000116 ], [ 94.329322815000182, 26.483840943000075 ], [ 94.332595825000055, 26.485029222000094 ], [ 94.336936951000098, 26.484819412000149 ], [ 94.343406677000189, 26.490039826000043 ], [ 94.349632264000036, 26.492841721000161 ], [ 94.352066040000182, 26.495750427000132 ], [ 94.351821899000129, 26.499202728000057 ], [ 94.35356140100015, 26.502159119000169 ], [ 94.355529785000158, 26.503450395000073 ], [ 94.353721618000179, 26.504810334000069 ], [ 94.351112366000109, 26.508621215000176 ], [ 94.354591369000104, 26.510280610000052 ], [ 94.358749389000081, 26.50914192200014 ], [ 94.364456176000033, 26.510330200000055 ], [ 94.369247436000137, 26.509990692000031 ], [ 94.377616883000087, 26.513120651000122 ], [ 94.378067016000159, 26.517160415000035 ], [ 94.376907349000192, 26.523170472000061 ], [ 94.378273011000033, 26.525260925000055 ], [ 94.391410827000129, 26.532829284 ], [ 94.394088744999976, 26.53264045800006 ], [ 94.396560668000177, 26.529731751000156 ], [ 94.39945220900006, 26.532320023000068 ], [ 94.398918151000089, 26.53454971300016 ], [ 94.402481080000086, 26.538801194000143 ], [ 94.401336669000159, 26.544080734000147 ], [ 94.402679442000192, 26.546861649000107 ], [ 94.406745909999984, 26.548250199000108 ], [ 94.40795135400009, 26.549711228000092 ], [ 94.407638550000172, 26.552400589000115 ], [ 94.40479278600003, 26.555231094000135 ], [ 94.406097412000179, 26.557380677000083 ], [ 94.408966064000197, 26.557130813000185 ], [ 94.411956787000122, 26.558450700000037 ], [ 94.410575867000091, 26.560598373 ], [ 94.407760620000147, 26.561428070000034 ], [ 94.409309388, 26.568990708000115 ], [ 94.411880493000012, 26.573400498000126 ], [ 94.414848327000072, 26.583280563000017 ], [ 94.40600586000005, 26.601930619000029 ], [ 94.408576966000169, 26.609790803000067 ], [ 94.407867433000149, 26.614330291000158 ], [ 94.40988159200009, 26.616439820000153 ], [ 94.434486390000018, 26.625379563000081 ], [ 94.454521179000096, 26.639020920000121 ], [ 94.45680999800004, 26.636640549000106 ], [ 94.462501525000164, 26.635459901000104 ], [ 94.464820862000124, 26.638710023000101 ], [ 94.464462280000077, 26.640369416000169 ], [ 94.461662293000131, 26.643840791000059 ], [ 94.461418152000135, 26.648090363000108 ], [ 94.458572389000096, 26.655349731000172 ], [ 94.461830139000199, 26.663160324000103 ], [ 94.464523315000065, 26.667510988 ], [ 94.467941285000109, 26.669820786000173 ], [ 94.485748292000039, 26.673700333000113 ], [ 94.492797852000137, 26.672252655000023 ], [ 94.498268127000074, 26.673711776000061 ], [ 94.500000000000114, 26.675167084000066 ], [ 94.503005981000058, 26.677690507000023 ], [ 94.50714111200017, 26.682979585000112 ], [ 94.509948731000179, 26.68342971900006 ], [ 94.515502929000036, 26.687299728000085 ], [ 94.519676209000181, 26.694601060000082 ], [ 94.52009582400018, 26.701450348000094 ], [ 94.522727967000094, 26.704368592000151 ], [ 94.527763366000045, 26.701280595000185 ], [ 94.540870667000036, 26.709632874000192 ], [ 94.545059204000097, 26.71090126100006 ], [ 94.55036926300005, 26.710170747000177 ], [ 94.554672242000038, 26.708440781000036 ], [ 94.561126709000177, 26.708139419000133 ], [ 94.563438415000178, 26.707370758000025 ], [ 94.56472778300008, 26.706001282000045 ], [ 94.562332153000114, 26.693830491000142 ], [ 94.562950135000051, 26.690631866000103 ], [ 94.566085814000076, 26.689928056000099 ], [ 94.570869446000131, 26.690059662000181 ], [ 94.574691772000165, 26.691020967000043 ], [ 94.571502686000088, 26.696222306000095 ], [ 94.582786559000169, 26.705579757000123 ], [ 94.585388184000067, 26.703310013000078 ], [ 94.588981629000102, 26.702440262000152 ], [ 94.592407227000194, 26.702730178000138 ], [ 94.594932556000174, 26.70655059700016 ], [ 94.595016480000197, 26.712360382000043 ], [ 94.596168519, 26.718179702000157 ], [ 94.598312377000127, 26.719940185000098 ], [ 94.603721618000122, 26.716171265000185 ], [ 94.604682922999984, 26.717210769000189 ], [ 94.604637146000016, 26.71985244800004 ], [ 94.603187559999981, 26.723810196000102 ], [ 94.60048675600018, 26.725259781000034 ], [ 94.593330383000193, 26.726131440000131 ], [ 94.595176697, 26.729890823000062 ], [ 94.59993743800004, 26.737720490000129 ], [ 94.60414886500007, 26.739280700999984 ], [ 94.610061645000087, 26.740102769000146 ], [ 94.61044311500018, 26.735860825000032 ], [ 94.611946106000119, 26.732650758000091 ], [ 94.617401124000082, 26.730550767000125 ], [ 94.620147705000079, 26.726739883000107 ], [ 94.621086121000076, 26.721170425000082 ], [ 94.622718811000141, 26.719530105000104 ], [ 94.628295899000136, 26.718629838000084 ], [ 94.631973267000092, 26.719650269000056 ], [ 94.640289306000113, 26.723970413000131 ], [ 94.646217347000061, 26.724510194000118 ], [ 94.65338897800001, 26.723630905000107 ], [ 94.658538819000057, 26.724800110000103 ], [ 94.66513824600014, 26.727760316000058 ], [ 94.686607362000132, 26.732589722000171 ], [ 94.691482543, 26.735759736000091 ], [ 94.69687652600004, 26.739690780000103 ], [ 94.711402894000059, 26.752822876000039 ], [ 94.719696045000092, 26.758039475000089 ], [ 94.731880188000048, 26.764009477000059 ], [ 94.736511230000076, 26.767410279000046 ], [ 94.737731933000077, 26.768850327000052 ], [ 94.741676330000018, 26.773571015000186 ], [ 94.742362977000084, 26.778640748000157 ], [ 94.745796203000111, 26.782140732000187 ], [ 94.750717163000161, 26.779670716000112 ], [ 94.754096984000114, 26.77431106500012 ], [ 94.756370544000106, 26.772268296000107 ], [ 94.75934600800008, 26.77413749700014 ], [ 94.760032655000145, 26.776628494000136 ], [ 94.762359619000108, 26.77993011600006 ], [ 94.768325806000064, 26.783397675 ], [ 94.769065856000168, 26.79109954900008 ], [ 94.773086547000048, 26.79496193 ], [ 94.785636902000078, 26.798570634000157 ], [ 94.790786743000126, 26.801452637000182 ], [ 94.794960022, 26.803731919000086 ], [ 94.802207946000181, 26.806060790000117 ], [ 94.805358886000135, 26.812191010000049 ], [ 94.801612853000051, 26.813810348000061 ], [ 94.796646118000069, 26.818519591999973 ], [ 94.806716920000042, 26.821229936000066 ], [ 94.809181213000102, 26.823280335000163 ], [ 94.813056945000142, 26.824760437000066 ], [ 94.815071106000119, 26.830020905000083 ], [ 94.815406800000176, 26.836809159000097 ], [ 94.816696168000078, 26.841470719000142 ], [ 94.821090699000138, 26.844869614000061 ], [ 94.821731568000189, 26.849309922000145 ], [ 94.821083068000178, 26.854459762999966 ], [ 94.826286317000154, 26.859310150000113 ], [ 94.832260132000158, 26.8627109520001 ], [ 94.83645629900019, 26.868459702000052 ], [ 94.838783265000131, 26.874000549000129 ], [ 94.845840453000164, 26.876791 ], [ 94.8515319830002, 26.881340028000182 ], [ 94.853347778000057, 26.885339738000141 ], [ 94.85900878800004, 26.893280030000085 ], [ 94.86531829900008, 26.906909943000073 ], [ 94.868621826000151, 26.909891128000083 ], [ 94.869636536000087, 26.915008545000148 ], [ 94.88154602100002, 26.926710129000014 ], [ 94.886222838000037, 26.932460786000036 ], [ 94.894470215000183, 26.937330246000045 ], [ 94.901290894000113, 26.940340042000059 ], [ 94.908821107000108, 26.942270280000059 ], [ 94.913856506000116, 26.942569732000152 ], [ 94.917991639000036, 26.945142747000148 ], [ 94.923767090000126, 26.95033073500008 ], [ 94.928161621000186, 26.952100754000071 ], [ 94.933601378000048, 26.938539505000051 ], [ 94.938552856000115, 26.937971116000142 ], [ 94.941223144999981, 26.93927192700005 ], [ 94.947090148000029, 26.940200806000064 ], [ 94.957283019999977, 26.943550110000103 ], [ 94.964172363000102, 26.940641404000132 ], [ 94.966766357000154, 26.936180115000013 ], [ 94.967941285000165, 26.931489945000123 ], [ 94.970672608000143, 26.928361893000101 ], [ 94.974258423000094, 26.927602768000099 ], [ 94.979660034000176, 26.924621583000089 ], [ 94.985671998000043, 26.918249130000106 ], [ 94.989448548000041, 26.917829513000129 ], [ 94.992050172000177, 26.918388366000102 ], [ 94.991188049000186, 26.922920226000087 ], [ 94.993057252000199, 26.926160813000081 ], [ 94.999465942000029, 26.924289703000113 ], [ 95.005790711000145, 26.924869537000177 ], [ 95.016571046000081, 26.924352646000102 ], [ 95.021347045000141, 26.925399780000077 ], [ 95.028556823000145, 26.932510376000039 ], [ 95.03804779, 26.938480378000179 ], [ 95.054649353000059, 26.940879823000046 ], [ 95.065338134000115, 26.94819069 ], [ 95.086860656999988, 26.952741623000065 ], [ 95.110046386000192, 26.966909409999971 ], [ 95.113220215000183, 26.972320556000057 ], [ 95.113502503000063, 26.977581025 ], [ 95.116943359000061, 26.983680726000159 ], [ 95.126380919000042, 26.986909867000065 ], [ 95.136985779000099, 26.993579865000015 ], [ 95.142761230000076, 26.998300553000036 ], [ 95.149482727000134, 26.999839783000027 ], [ 95.154502869000169, 27.00604057400011 ], [ 95.195518494000169, 27.042949676000092 ], [ 95.195793152000135, 27.032501221000075 ], [ 95.197853088000045, 27.019840240000065 ], [ 95.197616577000133, 27.015689851000161 ], [ 95.200080873000104, 27.006229400000109 ], [ 95.199821473000156, 26.999359131 ], [ 95.196266174000016, 26.997810363000156 ], [ 95.195198059000063, 26.989990234000118 ], [ 95.200439452000182, 26.985559464000175 ], [ 95.207756042000199, 26.984701156000028 ], [ 95.209960938, 26.982629776000067 ], [ 95.205223084000068, 26.982170105000137 ], [ 95.20655822700013, 26.978820801000097 ], [ 95.208770752000135, 26.975080490000153 ], [ 95.215042114000141, 26.970371247000173 ], [ 95.213668822000045, 26.968120574000181 ], [ 95.208839416000103, 26.965351104000035 ], [ 95.206756590999987, 26.962591172000089 ], [ 95.208511353000063, 26.960729600000093 ], [ 95.213417053000057, 26.958789827000089 ], [ 95.209236144000101, 26.956670760000179 ], [ 95.212196350000056, 26.943349838000017 ], [ 95.214447021000183, 26.936950684000124 ], [ 95.217056273000082, 26.934200287000181 ], [ 95.225563049000129, 26.934429168000179 ], [ 95.229309082000043, 26.930631638000023 ], [ 95.231849671000191, 26.926141739000059 ], [ 95.23396301300005, 26.920600892000039 ], [ 95.23396301300005, 26.918752671000107 ], [ 95.231956482000044, 26.917890548000116 ], [ 95.232086182000103, 26.914831162000098 ], [ 95.234100342000147, 26.909650802000101 ], [ 95.233772279000107, 26.905902863000051 ], [ 95.231323242000087, 26.898349762000123 ], [ 95.233856201000094, 26.89084053 ], [ 95.22992706399998, 26.88566970800008 ], [ 95.217826844000172, 26.886869432000083 ], [ 95.212852479000048, 26.885602952000113 ], [ 95.211357116000045, 26.881732941000053 ], [ 95.206428528000117, 26.877870560000133 ], [ 95.184501648000094, 26.864830017000031 ], [ 95.185768127000131, 26.859630585000048 ], [ 95.193046570000092, 26.85116958600014 ], [ 95.195610046000127, 26.849620819000165 ], [ 95.197326661000147, 26.849391938000167 ], [ 95.197708129000091, 26.851539611000135 ], [ 95.204238892000149, 26.84893989700015 ], [ 95.208602905000191, 26.850719453000124 ], [ 95.206413269, 26.846281052000165 ], [ 95.200508118000187, 26.842878343000052 ], [ 95.199043274000132, 26.839929580000103 ], [ 95.20056152300009, 26.832889557000158 ], [ 95.202583313000048, 26.828750611000146 ], [ 95.203552246000186, 26.821319580000193 ], [ 95.206840515000181, 26.811691284000062 ], [ 95.21511840800008, 26.798379898 ], [ 95.221572875000049, 26.793540956000015 ], [ 95.227470399000026, 26.792341232000069 ], [ 95.235015870000041, 26.789289474000157 ], [ 95.240257263000046, 26.789171219000082 ], [ 95.241722107000101, 26.786930084000176 ], [ 95.244918824000194, 26.78733062800012 ], [ 95.242538452000019, 26.784511566000106 ], [ 95.23467254600007, 26.780349733000094 ], [ 95.231636047000109, 26.777692796000053 ], [ 95.233306885000161, 26.773719787000061 ], [ 95.233177186000148, 26.771930696000084 ], [ 95.229202270000087, 26.768470764000142 ], [ 95.224082947000056, 26.761722565000184 ], [ 95.22010040300006, 26.759820938000132 ], [ 95.219261169000106, 26.755550386000152 ], [ 95.22136688300003, 26.751520157000186 ], [ 95.220977782000091, 26.747430803000043 ], [ 95.21685028100012, 26.741300583000168 ], [ 95.2161407480001, 26.735319138000023 ], [ 95.228202820000149, 26.723848343000157 ], [ 95.229652406000184, 26.716882706000149 ], [ 95.236106872999983, 26.712209702000052 ], [ 95.233695983000189, 26.697099687000104 ], [ 95.235969544000113, 26.691520691000164 ], [ 95.235977172, 26.688230514000168 ], [ 95.237632752000025, 26.686290740000061 ], [ 95.234497070000145, 26.68307113700007 ], [ 95.231666565000126, 26.67761039800007 ], [ 95.228057861000138, 26.67307090800017 ], [ 95.227432252000199, 26.672021867000126 ], [ 95.224731445000089, 26.667520523000178 ], [ 95.219482422000169, 26.660650254000075 ], [ 95.214859008000076, 26.655679703000146 ], [ 95.209838867000144, 26.651508331000116 ], [ 95.207809448000148, 26.650196075999986 ], [ 95.20616912800017, 26.649129869000149 ], [ 95.196998596000071, 26.647359848000178 ], [ 95.19127655, 26.647718430000168 ], [ 95.182022094000104, 26.64326095600012 ], [ 95.174316406000059, 26.634180069000081 ], [ 95.171417237000071, 26.630069732999971 ], [ 95.164787292000142, 26.626602173000151 ], [ 95.161376954000048, 26.624822617000177 ], [ 95.15833282400007, 26.623229980000133 ], [ 95.154708862000064, 26.619489670000064 ], [ 95.153732301000161, 26.609579086000053 ], [ 95.152488708000021, 26.601839066000025 ], [ 95.15220642200012, 26.597610475000181 ], [ 95.153030396000077, 26.593618393000099 ], [ 95.15622711300017, 26.586811066000053 ], [ 95.154487609000171, 26.580802917000028 ], [ 95.150817872000175, 26.576818466000134 ], [ 95.148750305000078, 26.574569703000122 ], [ 95.1445007330002, 26.567880631000037 ], [ 95.144424437999987, 26.563650131000088 ], [ 95.144416809000177, 26.563011169000163 ], [ 95.142745971000124, 26.562288285000022 ], [ 95.138549805000196, 26.560472489000063 ], [ 95.133842469000115, 26.562351227000079 ], [ 95.12681579700012, 26.562351227000079 ], [ 95.124687195000035, 26.556610107999973 ], [ 95.121322632000101, 26.552951812000174 ], [ 95.114791871000193, 26.54800033500004 ], [ 95.116424559999984, 26.544797898000184 ], [ 95.11905670100009, 26.539648056000033 ], [ 95.120773316000111, 26.534479142000123 ], [ 95.120780944000046, 26.529790879000075 ], [ 95.113151550000111, 26.518711090000181 ], [ 95.112510682000163, 26.518381120000072 ], [ 95.106849671000134, 26.515478134000034 ], [ 95.103492737000181, 26.512889862000122 ], [ 95.104621887000178, 26.509099960000071 ], [ 95.102416992000087, 26.503179550000141 ], [ 95.095993043000135, 26.498479842000108 ], [ 95.090995789000033, 26.494590760000051 ], [ 95.087905884000065, 26.490659713000127 ], [ 95.084030152000196, 26.485942840000178 ], [ 95.082008362000067, 26.483589172000109 ], [ 95.080421448000038, 26.481740953000042 ], [ 95.079200744000104, 26.480607987000099 ], [ 95.076026917000149, 26.477661134000073 ], [ 95.075782776000096, 26.475870133000171 ], [ 95.075439452000126, 26.473339081000177 ], [ 95.072326661000034, 26.469829560000107 ], [ 95.07196044900013, 26.469419480000113 ], [ 95.068786621000072, 26.466672897000137 ], [ 95.067207336000081, 26.461549759000093 ], [ 95.066307067000082, 26.456779480000023 ], [ 95.066406249000124, 26.450370787999987 ], [ 95.071716308000077, 26.450399399000162 ], [ 95.075080871000011, 26.452432632000068 ], [ 95.076301575000116, 26.45257949900008 ], [ 95.081619262000061, 26.453229904000125 ], [ 95.087020875000121, 26.451988221000192 ], [ 95.090560913000104, 26.447250367000038 ], [ 95.096817016000045, 26.43939971900005 ], [ 95.099983215000066, 26.436029433000101 ], [ 95.101516724000192, 26.432670593000182 ], [ 95.106185913000104, 26.429990768000039 ], [ 95.108673095000199, 26.423730850000084 ], [ 95.10768890300011, 26.418800354000155 ], [ 95.105819703000179, 26.415029527000172 ], [ 95.105445861000135, 26.411060333000023 ], [ 95.104957580000132, 26.406469346000051 ], [ 95.104766846000189, 26.401250839 ], [ 95.121665956000072, 26.398040771000183 ], [ 95.125038146, 26.395469665000064 ], [ 95.130851746000189, 26.390609742000038 ], [ 95.135742188000165, 26.387832642000092 ], [ 95.135940552000079, 26.383230209000089 ], [ 95.134582519000048, 26.375682831000177 ], [ 95.131912231000115, 26.366701127000056 ], [ 95.129730224000127, 26.362039566000078 ], [ 95.128295899000193, 26.35466194300011 ], [ 95.13165283100011, 26.346500398000103 ], [ 95.133476256999984, 26.342599870000129 ], [ 95.127532958000018, 26.335910797000111 ], [ 95.128036499000018, 26.33068084700011 ], [ 95.128227233000189, 26.329259873000126 ], [ 95.128746033000141, 26.325349807000066 ], [ 95.129371642000137, 26.321641923000072 ], [ 95.129898071000071, 26.317222596000079 ], [ 95.131233214000133, 26.307371139000054 ], [ 95.131538391000049, 26.302581787000065 ], [ 95.130828858000086, 26.296550750000108 ], [ 95.131149293000192, 26.292499543000019 ], [ 95.129791259000115, 26.28872108500002 ], [ 95.127090455000086, 26.284980775000179 ], [ 95.121269227000198, 26.279371262000154 ], [ 95.120697021000126, 26.274871826000151 ], [ 95.122688294000113, 26.268709183000169 ], [ 95.124908448000156, 26.264249801000176 ], [ 95.128738402000124, 26.260232926000072 ], [ 95.12966918900014, 26.256170273000066 ], [ 95.128318787000126, 26.252580642000169 ], [ 95.125778198000148, 26.245838166000055 ], [ 95.122901916000046, 26.24254989700006 ], [ 95.121231078000164, 26.238700867000091 ], [ 95.123138427000129, 26.232980728000086 ], [ 95.128372193000132, 26.229490280000164 ], [ 95.133209229000101, 26.225641250000024 ], [ 95.140586853000173, 26.218130112000097 ], [ 95.142539979000162, 26.214241028000174 ], [ 95.13822937000009, 26.20924186600007 ], [ 95.134201051000105, 26.207670212000039 ], [ 95.128295899000193, 26.203149796000162 ], [ 95.124671937000187, 26.196620942000152 ], [ 95.127731323000035, 26.193958282999972 ], [ 95.125816345000032, 26.182720184000175 ], [ 95.122985840000013, 26.176338197000121 ], [ 95.120216370000037, 26.172250748000067 ], [ 95.118057252000085, 26.168939590000036 ], [ 95.116836547000105, 26.163009645000102 ], [ 95.120498656000109, 26.155109405000132 ], [ 95.123786925000161, 26.149110794000023 ], [ 95.127876282000045, 26.136970520000034 ], [ 95.125358581000171, 26.131322860000125 ], [ 95.123176574000183, 26.127662659000066 ], [ 95.120887757000105, 26.121999741000138 ], [ 95.120567322000113, 26.109741211000141 ], [ 95.123252868000122, 26.104209900000171 ], [ 95.126716615000078, 26.100999832000127 ], [ 95.131500244, 26.100311279000096 ], [ 95.138046266, 26.102558137000187 ], [ 95.144226075, 26.100950242000124 ], [ 95.147979736000195, 26.097919465000075 ], [ 95.15162658700001, 26.094890595000095 ], [ 95.157463073000145, 26.096162797000034 ], [ 95.165916442000139, 26.099010468000188 ], [ 95.17098999000018, 26.096782684000061 ], [ 95.176986693000117, 26.09227943500008 ], [ 95.180152894000173, 26.08980941700014 ], [ 95.185356140000067, 26.084682464000025 ], [ 95.185699464000095, 26.080350876000125 ], [ 95.183570862000181, 26.074510575000147 ], [ 95.18161010700004, 26.072587968000164 ], [ 95.180313110999975, 26.071310042999983 ], [ 95.177528381000172, 26.067560197000091 ], [ 95.173027038000157, 26.061759948000031 ], [ 95.168052674000137, 26.0577697760001 ], [ 95.165573121000079, 26.053379060000111 ], [ 95.16519165, 26.044559479000156 ], [ 95.165000916000054, 26.038871765000124 ], [ 95.164886474000184, 26.037250519000111 ], [ 95.164718628000116, 26.03500175400012 ], [ 95.162635803, 26.031419754000012 ], [ 95.161407471000189, 26.03029060300014 ], [ 95.148910522000108, 26.018810273000042 ], [ 95.142646789000082, 26.010868073000154 ], [ 95.140663146000179, 26.006471634000093 ], [ 95.136627197000109, 26.004180909000013 ], [ 95.13154602100019, 26.000101089000168 ], [ 95.127983094000172, 25.995279312000093 ], [ 95.117538452000133, 25.987749099999974 ], [ 95.110107422000112, 25.975679397000079 ], [ 95.109718323000152, 25.974876403999986 ], [ 95.106468200999984, 25.968151094000063 ], [ 95.100166321000131, 25.96494674600018 ], [ 95.093353272000115, 25.961481094000135 ], [ 95.088478088000159, 25.957572938000055 ], [ 95.07894897400007, 25.950838090000047 ], [ 95.073440551000033, 25.949029923000126 ], [ 95.065498351000144, 25.947679520000179 ], [ 95.057411195000157, 25.946977616000027 ], [ 95.05306243900003, 25.944501878000153 ], [ 95.0499572760001, 25.939220428000169 ], [ 95.044898986000078, 25.934789658 ], [ 95.036697387000117, 25.935070039000038 ], [ 95.03584289600019, 25.931470870000055 ], [ 95.036178590000077, 25.928611756000123 ], [ 95.036361694000163, 25.927040100000113 ], [ 95.033111571000063, 25.924381256000174 ], [ 95.02803039600002, 25.919849396000188 ], [ 95.02186584400016, 25.909999847000165 ], [ 95.021461488000114, 25.909019470000146 ], [ 95.020095826000045, 25.905700685000056 ], [ 95.0193328860002, 25.901020051000046 ], [ 95.019783019000045, 25.898000717000173 ], [ 95.020301819000167, 25.894510270000069 ], [ 95.022171021000077, 25.887540817000115 ], [ 95.019027709000056, 25.88479042 ], [ 95.017478944000061, 25.882942201000162 ], [ 95.015571594, 25.880672455000081 ], [ 95.015571594, 25.88053703300011 ], [ 95.015411377000191, 25.872020722000059 ], [ 95.018241882000154, 25.867830278000042 ], [ 95.021423341000059, 25.861850738000044 ], [ 95.024368286000083, 25.858470917000091 ], [ 95.027549743000122, 25.851480484000149 ], [ 95.030029297000112, 25.849319458000025 ], [ 95.033226014000036, 25.84653091500013 ], [ 95.033714294000106, 25.84041976900005 ], [ 95.034233094000058, 25.83389091500004 ], [ 95.034629822, 25.828960419000111 ], [ 95.034751893000077, 25.827449798000089 ], [ 95.034973144, 25.826419830000134 ], [ 95.036048889000085, 25.823762893000151 ], [ 95.037483216000055, 25.820222855000168 ], [ 95.040328979000037, 25.817039490000127 ], [ 95.043846129000087, 25.813020707000021 ], [ 95.049377441000161, 25.810071946000051 ], [ 95.05179595900006, 25.805170059000091 ], [ 95.05149078300002, 25.799119949999977 ], [ 95.047592162000171, 25.787710190999974 ], [ 95.045501709000121, 25.78279113800005 ], [ 95.045646668000131, 25.778629303000059 ], [ 95.052528381000116, 25.76265907200019 ], [ 95.044403076000094, 25.75329971300016 ], [ 95.04238891600005, 25.750196458000175 ], [ 95.040687561000027, 25.747579575000088 ], [ 95.033691406000173, 25.741439820000039 ], [ 95.027198792000149, 25.740619659000117 ], [ 95.018882752000081, 25.738468171000136 ], [ 95.009399415000132, 25.738510133000034 ], [ 95.002410888000156, 25.732629777000056 ], [ 94.99931335500014, 25.726631164000139 ], [ 94.998779297000169, 25.722101212000098 ], [ 94.998725890000117, 25.721679687000119 ], [ 94.993232727000077, 25.714260102000082 ], [ 94.989036561000148, 25.709079742000085 ], [ 94.983673095000142, 25.704280854000046 ], [ 94.979919434000124, 25.701892852000128 ], [ 94.976303101000155, 25.699501038000164 ], [ 94.973869323000031, 25.697357177000129 ], [ 94.973167420000152, 25.696741103000136 ], [ 94.953765868000119, 25.683441162000065 ], [ 94.942871093000122, 25.675279618000161 ], [ 94.937576294000166, 25.669031143000154 ], [ 94.935096741000052, 25.664550782000049 ], [ 94.934150696000074, 25.661052703999985 ], [ 94.932632446000184, 25.654020308999975 ], [ 94.931869507000044, 25.652015687000016 ], [ 94.929832459000068, 25.646659851000095 ], [ 94.926628114000039, 25.640560151000045 ], [ 94.925506591999977, 25.632350921000125 ], [ 94.922279358000139, 25.624469757000099 ], [ 94.920906066000043, 25.61483192500009 ], [ 94.919677734000174, 25.611141205000081 ], [ 94.917221068000117, 25.60765266400017 ], [ 94.911460876000092, 25.603300095 ], [ 94.904685973000085, 25.601404191000029 ], [ 94.903457641000045, 25.601060867 ], [ 94.895721436000088, 25.597999574000141 ], [ 94.888977050000165, 25.593111037000028 ], [ 94.888923645000091, 25.592874526000116 ], [ 94.889167786000144, 25.592180251000116 ], [ 94.888717652000196, 25.592002868000122 ], [ 94.887702942000089, 25.587619782000161 ], [ 94.89189147899998, 25.582059860000015 ], [ 94.897079467000083, 25.577400208000142 ], [ 94.90415954600013, 25.57118034400014 ], [ 94.90499115, 25.567110061000051 ], [ 94.887832641000102, 25.565418244000114 ], [ 94.858551026000157, 25.563402175000022 ], [ 94.856781006000062, 25.563440322000076 ], [ 94.856475829000146, 25.563325882000015 ], [ 94.853012085000103, 25.563301088000117 ], [ 94.849937438000154, 25.56087493900003 ], [ 94.849441527000067, 25.560689926000066 ], [ 94.847999572000049, 25.559349060000159 ], [ 94.843421935000094, 25.555740356000172 ], [ 94.836860657000045, 25.550489425000137 ], [ 94.833923340000126, 25.546730041000103 ], [ 94.82979583700012, 25.538391113000046 ], [ 94.829673768000077, 25.534860610000067 ], [ 94.82961273300009, 25.532979965000152 ], [ 94.82884216400015, 25.528118134000181 ], [ 94.825332642000035, 25.52094078000016 ], [ 94.822090148000143, 25.517190934000041 ], [ 94.820236206000061, 25.513681412999972 ], [ 94.818649292000032, 25.506851197000117 ], [ 94.815559387000064, 25.499927521000075 ], [ 94.812492371000189, 25.495370865000041 ], [ 94.805877686000088, 25.493360520000067 ], [ 94.79711914000012, 25.493730545000176 ], [ 94.78983306900011, 25.491199494000114 ], [ 94.7845230100001, 25.490179062000038 ], [ 94.778961181999989, 25.484279632999971 ], [ 94.772743225000056, 25.481292725000117 ], [ 94.76705932700014, 25.48242950600013 ], [ 94.764526368000077, 25.485431671000129 ], [ 94.76232147200011, 25.491500856000187 ], [ 94.75668335000006, 25.492019653000057 ], [ 94.755760192000082, 25.489000321000162 ], [ 94.755416871000136, 25.487880706000169 ], [ 94.751548767000031, 25.482509612000172 ], [ 94.746513366000045, 25.479129791000048 ], [ 94.739212037000186, 25.47677993800005 ], [ 94.730888367000148, 25.474700928000175 ], [ 94.721786500000121, 25.472459793999974 ], [ 94.714630127000191, 25.471002578000025 ], [ 94.702430726000046, 25.468601228000125 ], [ 94.700927735000107, 25.468496323000068 ], [ 94.695671082000104, 25.468130111000107 ], [ 94.688636779000092, 25.465499878 ], [ 94.682426453000176, 25.459730149000052 ], [ 94.669761657000151, 25.455360412000061 ], [ 94.665977478000116, 25.455400467000061 ], [ 94.658737183000142, 25.457050324000079 ], [ 94.656455994000112, 25.458600999000055 ], [ 94.648231506000172, 25.46162033100012 ], [ 94.632972718000076, 25.465658188000134 ], [ 94.625343323000038, 25.469089508000025 ], [ 94.607482909000055, 25.482440949000079 ], [ 94.597366333000195, 25.486259460000099 ], [ 94.594886779000035, 25.488149644000032 ], [ 94.590843202000201, 25.489749909000182 ], [ 94.587196351000159, 25.492450715000189 ], [ 94.585006713000041, 25.496870040000147 ], [ 94.574592590000123, 25.505229949000068 ], [ 94.568176270000038, 25.506589890000043 ], [ 94.557418822999978, 25.512769700000149 ], [ 94.558998107000093, 25.524339677000057 ], [ 94.56125640800019, 25.530691147000141 ], [ 94.558273316000111, 25.534879684000032 ], [ 94.563476562, 25.539672851000091 ], [ 94.559867858000018, 25.545709611000063 ], [ 94.562896728000169, 25.549510957000166 ], [ 94.561378479000041, 25.560510635000071 ], [ 94.564659120000158, 25.567939758000023 ], [ 94.560409546000074, 25.567989350000062 ], [ 94.561538696000071, 25.578330994000055 ], [ 94.555740357000047, 25.585811615000068 ], [ 94.559570312000119, 25.594110489000116 ], [ 94.565147400000058, 25.602600097 ], [ 94.566909790000068, 25.604101182000136 ], [ 94.568626403000053, 25.607791900000166 ], [ 94.572822570000085, 25.611312867000095 ], [ 94.576919557000053, 25.620372772000167 ], [ 94.578506469000047, 25.626251219999972 ], [ 94.583770753000067, 25.634490966000158 ], [ 94.590507506000165, 25.640270234000127 ], [ 94.594551086000024, 25.642650604000096 ], [ 94.595199586000035, 25.643850327000166 ], [ 94.586936951000041, 25.646591186000023 ], [ 94.576087951000147, 25.644701005 ], [ 94.577232361000142, 25.64833069000008 ], [ 94.576789856000062, 25.652830123000115 ], [ 94.581352234000065, 25.65739250200005 ], [ 94.582046509000065, 25.660610200000178 ], [ 94.585220336000191, 25.661779405000175 ], [ 94.583442688, 25.665220261000115 ], [ 94.585586548000094, 25.670009613000104 ], [ 94.58737182700014, 25.671800614000063 ], [ 94.585327148000147, 25.674850465000077 ], [ 94.588127137000072, 25.677270889000113 ], [ 94.589965821000192, 25.681249620000074 ], [ 94.596946716, 25.686910630000057 ], [ 94.595619201000034, 25.691280365000011 ], [ 94.587051391999978, 25.69189071600016 ], [ 94.582977296000081, 25.693201065000153 ], [ 94.578613281, 25.695999146000133 ], [ 94.573013306000064, 25.697650911000096 ], [ 94.567993164000143, 25.69222068900001 ], [ 94.565078735000156, 25.680820465000181 ], [ 94.552223205000189, 25.667411803999983 ], [ 94.551780701000155, 25.662460327000019 ], [ 94.544738769000162, 25.657541276000075 ], [ 94.539543153000125, 25.65108108600009 ], [ 94.531547546000184, 25.650129319000087 ], [ 94.530662537000069, 25.642589568 ], [ 94.528182983000079, 25.644290925 ], [ 94.524192811000148, 25.643432618000134 ], [ 94.514511108000136, 25.630491255999971 ], [ 94.510902406000127, 25.629909516000168 ], [ 94.508666990999984, 25.626899719999983 ], [ 94.507797241000162, 25.618949890000181 ], [ 94.505371094000054, 25.616992951000043 ], [ 94.501831056000071, 25.620021820999966 ], [ 94.500000000000114, 25.61885643100004 ], [ 94.499938965000126, 25.618818284000156 ], [ 94.499298095000199, 25.616502761000163 ], [ 94.493415832000153, 25.614330292000091 ], [ 94.491111756000123, 25.618650437000042 ], [ 94.491180418999988, 25.619798660000072 ], [ 94.474037171000191, 25.621641159000035 ], [ 94.449272156000063, 25.601089478000176 ], [ 94.447822570000199, 25.598041536000039 ], [ 94.444282532000045, 25.596010208 ], [ 94.437736512000185, 25.595859528000176 ], [ 94.430023193000125, 25.592721939000171 ], [ 94.425659179000036, 25.581470489000026 ], [ 94.422378540000068, 25.575990677000163 ], [ 94.425102233000132, 25.572999955000114 ], [ 94.426391601000034, 25.561450959000069 ], [ 94.425590516000113, 25.552919389000067 ], [ 94.420272827000019, 25.542650223000066 ], [ 94.416809082000043, 25.541940689000114 ], [ 94.410896302000026, 25.543518066000161 ], [ 94.404487609000114, 25.54089927800004 ], [ 94.388542175000111, 25.536569595000174 ], [ 94.364669801, 25.521490096000093 ], [ 94.329010010000104, 25.508350373000155 ], [ 94.320686340000123, 25.499280930000168 ], [ 94.313537598000153, 25.494470597000145 ], [ 94.308982849000131, 25.4938011160001 ], [ 94.302642822000053, 25.494632720000141 ], [ 94.298995971000181, 25.500709535000169 ], [ 94.290740966999977, 25.509519578000152 ], [ 94.286743164000086, 25.511699677000138 ], [ 94.279869080000083, 25.505451202000188 ], [ 94.274147034000066, 25.502990722000163 ], [ 94.266937256000176, 25.502439499000104 ], [ 94.257263183000077, 25.503419877000056 ], [ 94.252059937000126, 25.4990711210001 ], [ 94.231742860000168, 25.498310090000132 ], [ 94.2291412350001, 25.496009827000137 ], [ 94.222976684000116, 25.496772766000106 ], [ 94.219856263000167, 25.499629974000072 ], [ 94.214851378, 25.500240326000153 ], [ 94.212806702000137, 25.502820969000027 ], [ 94.212928772999987, 25.50817108200016 ], [ 94.206901551000101, 25.511640549000049 ], [ 94.206886292000036, 25.513950348000151 ], [ 94.199249267000084, 25.522769929000049 ], [ 94.190727233000132, 25.53078079200003 ], [ 94.190139770000144, 25.53462982200017 ], [ 94.193908692000036, 25.542198181000117 ], [ 94.19486999500009, 25.552429199000187 ], [ 94.191848755000024, 25.550951004000183 ], [ 94.182769775000054, 25.553251267000178 ], [ 94.179542541000046, 25.550189971 ], [ 94.167907716000059, 25.547010422000142 ], [ 94.163528443000189, 25.549921036000057 ], [ 94.160110472999975, 25.5552501680001 ], [ 94.152877807000039, 25.547840118000181 ], [ 94.151840210000046, 25.541851043000179 ], [ 94.148200990000021, 25.531690597000079 ], [ 94.145233154000152, 25.527639389000058 ], [ 94.138732911000091, 25.523700715000132 ], [ 94.128509522000058, 25.525880814000118 ], [ 94.106079101000148, 25.528900146000183 ], [ 94.092109679000032, 25.532730103000119 ], [ 94.092521668000074, 25.53796958900017 ], [ 94.096199036000087, 25.541719437000097 ], [ 94.094963073000031, 25.546440125000117 ], [ 94.085952758000133, 25.559730530000081 ], [ 94.080039978000116, 25.561599731000115 ], [ 94.069419861000085, 25.558980943000165 ], [ 94.06469726500012, 25.566370011000117 ], [ 94.054122924000183, 25.576759339000148 ], [ 94.04599762100014, 25.580949783000108 ], [ 94.043617249000192, 25.577480317000095 ], [ 94.039009094, 25.579860687000064 ], [ 94.039161683000088, 25.583030700000052 ], [ 94.037918090000176, 25.581928253000058 ], [ 94.034896851000042, 25.581489563 ], [ 94.033409118000122, 25.584701538000104 ], [ 94.027267456000175, 25.587989807000156 ], [ 94.025512696000135, 25.593389510000065 ], [ 94.014732361000142, 25.596130371000129 ], [ 94.01039886500007, 25.595399857000075 ], [ 94.007652284000073, 25.590940476000128 ], [ 94.007827759000122, 25.587528228000053 ], [ 94.011756896000065, 25.579090118000181 ], [ 94.012283326000102, 25.575298310000164 ], [ 94.011596679000036, 25.57274818500008 ], [ 94.010421754000106, 25.571311951000098 ], [ 94.0074462890002, 25.569850922000057 ], [ 94.000610351000148, 25.573881149000044 ], [ 93.980468750000114, 25.571252823000179 ], [ 93.97785186800013, 25.566160202000049 ], [ 93.972648621000133, 25.561180116000116 ], [ 93.965217590000179, 25.556577683000057 ], [ 93.957389831000057, 25.556751251000037 ], [ 93.945167541000046, 25.562639237000155 ], [ 93.943519591000154, 25.563432693999971 ], [ 93.930122375999986, 25.565389633000166 ], [ 93.919326783000031, 25.564029694000169 ], [ 93.917091370000094, 25.566720963000023 ], [ 93.910896300000161, 25.567529679000131 ], [ 93.90484619200015, 25.567428589000144 ], [ 93.900238038000055, 25.5687294 ], [ 93.891960145000041, 25.568420410000044 ], [ 93.878372193000189, 25.561981201000037 ], [ 93.862236022000104, 25.557529450000061 ], [ 93.852317810000102, 25.558649063000075 ], [ 93.844207763000099, 25.561691285000052 ], [ 93.836486816000161, 25.563060761000031 ], [ 93.833473205000132, 25.561372757000186 ], [ 93.833259582000096, 25.55642128 ], [ 93.825042725000174, 25.555999756000119 ], [ 93.823349, 25.548162461000118 ], [ 93.819717407000041, 25.544389724000155 ], [ 93.815940858000147, 25.545448304 ], [ 93.807846069000163, 25.544519425000146 ], [ 93.779487610000047, 25.538049697000076 ], [ 93.771820068000181, 25.540809631000172 ], [ 93.770637513000111, 25.540279389000148 ], [ 93.770973206000065, 25.536020279000184 ], [ 93.768951416000107, 25.530710221000106 ], [ 93.768180847000053, 25.525291444000061 ], [ 93.769317626000031, 25.517709732000128 ], [ 93.764289855000186, 25.515481949000105 ], [ 93.765792846000068, 25.499900817000025 ], [ 93.769348144999981, 25.496772766000106 ], [ 93.773391724000192, 25.497840881000116 ], [ 93.788467408000031, 25.506490708 ], [ 93.797248840000066, 25.504381180000109 ], [ 93.804046631, 25.499029159000031 ], [ 93.807609558000195, 25.495559693000189 ], [ 93.813888549000069, 25.484729766000044 ], [ 93.808998108000196, 25.465589524000166 ], [ 93.805229186000076, 25.463420868000128 ], [ 93.802429200000063, 25.460409164000168 ], [ 93.798362732000044, 25.453931808000164 ], [ 93.793746948000035, 25.448659896000038 ], [ 93.790206910000052, 25.443380356000034 ], [ 93.788108825999984, 25.435880662000159 ], [ 93.784477234000065, 25.431938172000116 ], [ 93.78053283600002, 25.429500580000024 ], [ 93.781066894000162, 25.424711228000035 ], [ 93.764419556000178, 25.418130875000145 ], [ 93.76033783000014, 25.414119720000144 ], [ 93.746665954000093, 25.405710221000049 ], [ 93.741989135000097, 25.399919510000132 ], [ 93.740066528000114, 25.395179750000182 ], [ 93.741317749000132, 25.389440536000109 ], [ 93.73979187000009, 25.384418488000108 ], [ 93.731002808000142, 25.380371094000054 ], [ 93.723106385000051, 25.37558174100019 ], [ 93.718978882000044, 25.370359422000149 ], [ 93.718040466, 25.361600876000068 ], [ 93.711585998000146, 25.358089447000054 ], [ 93.699981689000197, 25.359422684000151 ], [ 93.692779542000153, 25.361589431000084 ], [ 93.691452027000196, 25.347419739000088 ], [ 93.687126159, 25.331211090000011 ], [ 93.6839218140002, 25.329629898000121 ], [ 93.672073364000198, 25.328710555000157 ], [ 93.673957825000059, 25.317281722000189 ], [ 93.672943115000123, 25.311510087000045 ], [ 93.66609191900011, 25.308280945000035 ], [ 93.664749146000133, 25.304241181000066 ], [ 93.665611266000042, 25.298429489000057 ], [ 93.651618958000142, 25.279020309000146 ], [ 93.651367188000108, 25.273660660000189 ], [ 93.649909973000035, 25.269119263 ], [ 93.643547057000092, 25.265882493000106 ], [ 93.64311981200018, 25.260011673000179 ], [ 93.638092041000107, 25.250398636000114 ], [ 93.631866455000136, 25.242919922000056 ], [ 93.628906250999989, 25.23574829100005 ], [ 93.621147155000187, 25.224912644000142 ], [ 93.612579346000132, 25.20619010900009 ], [ 93.608016967000196, 25.202051163000135 ], [ 93.604286195000043, 25.20432090900016 ], [ 93.601036073000103, 25.202392578000058 ], [ 93.597099303000164, 25.204299928000125 ], [ 93.593032838000056, 25.203912735000131 ], [ 93.592857362000075, 25.206670761000055 ], [ 93.59484100300017, 25.211130143000105 ], [ 93.591979981000065, 25.213909150000063 ], [ 93.590286254000148, 25.219949723000127 ], [ 93.588058472000057, 25.222169875000134 ], [ 93.585845948000099, 25.222311019000074 ], [ 93.581649779000088, 25.226009370000099 ], [ 93.578201295000042, 25.225690843000109 ], [ 93.57485199100006, 25.22755050700016 ], [ 93.570762634000175, 25.232450485000072 ], [ 93.570098878000124, 25.235609055000111 ], [ 93.563133239000138, 25.246589662000133 ], [ 93.554710389000093, 25.250528336000059 ], [ 93.547172546000184, 25.248491288000082 ], [ 93.541206359000114, 25.245380403000127 ], [ 93.529357909000112, 25.248359680000192 ], [ 93.520606994000048, 25.248781205000171 ], [ 93.516426086000138, 25.244770049000124 ], [ 93.508430481000175, 25.243709565000131 ], [ 93.50514221200018, 25.244131089000177 ], [ 93.504173278999986, 25.253381730000058 ], [ 93.510787964000087, 25.275608062000174 ], [ 93.504379272999984, 25.275770186999978 ], [ 93.494895934000056, 25.278720855000074 ], [ 93.487541199000191, 25.275930404 ], [ 93.483383179000043, 25.27663993800013 ], [ 93.476753234000114, 25.279039383000111 ], [ 93.472587586000088, 25.285440445000063 ], [ 93.474632262000114, 25.292419434000067 ], [ 93.475135803000114, 25.299680710000132 ], [ 93.474021911000193, 25.309280395000087 ], [ 93.467979430000184, 25.313810349000107 ], [ 93.463127136000139, 25.319860458000051 ], [ 93.456703187000187, 25.325260163000166 ], [ 93.45796966600011, 25.3300514230001 ] ] ] ] } }
]
}
