{
"type": "FeatureCollection",
"name": "Sikkim",
"crs": { "type": "name", "properties": { "name": "urn:ogc:def:crs:OGC:1.3:CRS84" } },
"features": [
{ "type": "Feature", "properties": { "GID_1": "IND.30_1", "GID_0": "IND", "COUNTRY": "India", "NAME_1": "Sikkim", "VARNAME_1": "NA", "NL_NAME_1": "NA", "TYPE_1": "State", "ENGTYPE_1": "State", "CC_1": "NA", "HASC_1": "IN.SK", "ISO_1": "IN-SK" }, "geometry": { "type": "MultiPolygon", "coordinates": [ [ [ [ 88.919380189000094, 27.32462120200006 ], [ 88.919563293000181, 27.323404312000093 ], [ 88.919624328000168, 27.322996140999976 ], [ 88.919654847000118, 27.322422029000109 ], [ 88.919731140000124, 27.321001053000145 ], [ 88.918113709000124, 27.318424224000182 ], [ 88.916908263000039, 27.316337586000031 ], [ 88.915374756000062, 27.314291000000139 ], [ 88.914024353000173, 27.312408447000053 ], [ 88.91353607200017, 27.310857772000134 ], [ 88.912689208000074, 27.309019089000117 ], [ 88.91215515000016, 27.308118821000051 ], [ 88.910163879000152, 27.306314469000142 ], [ 88.909446716000048, 27.305168153000182 ], [ 88.909393311000144, 27.304918289000113 ], [ 88.90914154100011, 27.303821565000135 ], [ 88.9091568, 27.302192688000105 ], [ 88.909164428000111, 27.301733017000174 ], [ 88.909172058000024, 27.300483704000101 ], [ 88.909164428000111, 27.300333024000054 ], [ 88.909133911000197, 27.29909896900017 ], [ 88.91040802100008, 27.297410965000154 ], [ 88.910774231000175, 27.296928407000166 ], [ 88.911155701000155, 27.295700074000081 ], [ 88.91218566900011, 27.293495178000057 ], [ 88.913391113000159, 27.291864395000061 ], [ 88.91441345100003, 27.290069580000136 ], [ 88.913879394000162, 27.288917542000036 ], [ 88.911239625000121, 27.286437988000046 ], [ 88.910430909000183, 27.284219741000072 ], [ 88.908348084000068, 27.28149795600001 ], [ 88.907913209000071, 27.279117585000165 ], [ 88.907852172999981, 27.276678085000128 ], [ 88.905838012000061, 27.275167464999981 ], [ 88.904289246000189, 27.273843765000095 ], [ 88.900588988000095, 27.273963928000171 ], [ 88.899719238000046, 27.272663117000093 ], [ 88.895797729000037, 27.27017402600012 ], [ 88.893333436000148, 27.26908874500009 ], [ 88.890312194000103, 27.268081665000125 ], [ 88.887474061000034, 27.267570496000189 ], [ 88.886093139000138, 27.267641067000056 ], [ 88.883987428000125, 27.267133713000192 ], [ 88.878967285000158, 27.261236192000069 ], [ 88.877761841000051, 27.261466980000023 ], [ 88.876930237000181, 27.261716842000055 ], [ 88.876213074000077, 27.261932374000139 ], [ 88.875213624000139, 27.262222290000125 ], [ 88.874137879000045, 27.262514114000112 ], [ 88.872833252000191, 27.262819291000085 ], [ 88.871231080000143, 27.263307571000155 ], [ 88.869857788000047, 27.263797760000102 ], [ 88.867286683000032, 27.264638901000183 ], [ 88.866477967000094, 27.264776230000052 ], [ 88.863113402000124, 27.264677048000067 ], [ 88.860069275000058, 27.264654160000077 ], [ 88.85734558200005, 27.264560700000175 ], [ 88.853492736000078, 27.264030458000036 ], [ 88.849166871000193, 27.263853074000053 ], [ 88.844680786000197, 27.263458251000031 ], [ 88.842117311000095, 27.263223648000064 ], [ 88.836311341000055, 27.26281356800007 ], [ 88.834106445000032, 27.262657166000054 ], [ 88.833007812000176, 27.262697220000177 ], [ 88.83245086800008, 27.262617112000157 ], [ 88.831321717000037, 27.262453079000124 ], [ 88.828056335000042, 27.257448197000087 ], [ 88.822944640000117, 27.255331040000158 ], [ 88.819114685000045, 27.253936767000027 ], [ 88.815353394000113, 27.25261688300003 ], [ 88.810485841000173, 27.250999452000087 ], [ 88.80320739800004, 27.247974396000075 ], [ 88.802925109000057, 27.246406555000078 ], [ 88.803451539000093, 27.244707107000181 ], [ 88.804016113000102, 27.243232728000123 ], [ 88.804496765000067, 27.241264343000068 ], [ 88.804389953000111, 27.24005317700005 ], [ 88.804000855000083, 27.238565445000063 ], [ 88.803100585000038, 27.235826493000104 ], [ 88.80265045100009, 27.232946396000102 ], [ 88.802665709999985, 27.231550216000016 ], [ 88.80268097000004, 27.230152130000192 ], [ 88.802688598000145, 27.22933006400018 ], [ 88.802658082000107, 27.228305816000159 ], [ 88.802665709999985, 27.227449416000184 ], [ 88.802619935000052, 27.226213456000096 ], [ 88.80270385700004, 27.223836899000162 ], [ 88.802871704000154, 27.222982407000188 ], [ 88.803253174000133, 27.221511841000165 ], [ 88.802856446000135, 27.220378875000051 ], [ 88.802413940000122, 27.218534471 ], [ 88.801559448000148, 27.217576981000036 ], [ 88.801307678000057, 27.216623306000088 ], [ 88.800788879000038, 27.21519470200019 ], [ 88.800132751000149, 27.213823318000038 ], [ 88.799819946000071, 27.212217332000023 ], [ 88.799522400000171, 27.208532334000154 ], [ 88.798835755000084, 27.206640244000084 ], [ 88.797676086000138, 27.205728531000034 ], [ 88.796890259000065, 27.204532624000137 ], [ 88.795578003, 27.202953338000043 ], [ 88.794952393000131, 27.201425552000103 ], [ 88.791542053000057, 27.19683265700013 ], [ 88.789802552000083, 27.196386338000082 ], [ 88.789009095000097, 27.195581436000055 ], [ 88.788757325, 27.195327759000122 ], [ 88.788803100000166, 27.194662095000126 ], [ 88.788772583000025, 27.193927765000126 ], [ 88.788902282000038, 27.192703248000157 ], [ 88.789154052000072, 27.19135666000011 ], [ 88.789192201000105, 27.191131592000147 ], [ 88.789169312000126, 27.190734863000102 ], [ 88.789108277000139, 27.189559936000137 ], [ 88.789093018000187, 27.189258576000043 ], [ 88.788902282000038, 27.188663483000084 ], [ 88.788780212000063, 27.187711716000138 ], [ 88.788391113000102, 27.186519622999981 ], [ 88.788078308000081, 27.184675217000176 ], [ 88.786849976000042, 27.181993484000031 ], [ 88.784706116000109, 27.182016372000191 ], [ 88.783790588000045, 27.18202591000005 ], [ 88.782859802000132, 27.182315826000092 ], [ 88.781791687000123, 27.182662965000134 ], [ 88.780792237000185, 27.183071137000127 ], [ 88.779792785000097, 27.183418275000065 ], [ 88.778724670000088, 27.183706284000039 ], [ 88.777061462000177, 27.183574677000081 ], [ 88.774887085000103, 27.182664872000032 ], [ 88.773223877000135, 27.182353973000147 ], [ 88.771766662000118, 27.182163239000147 ], [ 88.769653320000032, 27.181196214000181 ], [ 88.768516540000121, 27.18031692500017 ], [ 88.766754150000168, 27.179033280000112 ], [ 88.76622772200011, 27.178583146000165 ], [ 88.765563966000116, 27.178014755000106 ], [ 88.764312745000041, 27.177230835000103 ], [ 88.763015747, 27.174406053000098 ], [ 88.762298583000188, 27.172817231000124 ], [ 88.761550903000114, 27.171962738000047 ], [ 88.760726929000157, 27.171022415000095 ], [ 88.76007080100004, 27.170482636000145 ], [ 88.759025574000191, 27.168750763000105 ], [ 88.75852966399998, 27.167980194 ], [ 88.757522582000149, 27.166419984000072 ], [ 88.756935119000161, 27.165464402000055 ], [ 88.757011413000043, 27.164218903000119 ], [ 88.757560731000012, 27.162797929000135 ], [ 88.757972718000133, 27.161197662000177 ], [ 88.756935119000161, 27.158811570000069 ], [ 88.757476807000046, 27.157985688000167 ], [ 88.758445740000184, 27.156921386000192 ], [ 88.759353638000164, 27.156219483000086 ], [ 88.759582519000162, 27.154924393000044 ], [ 88.759635926000044, 27.154617311000038 ], [ 88.760192872000118, 27.152839660000154 ], [ 88.758399963000045, 27.151397705000136 ], [ 88.756782532000045, 27.148237229000131 ], [ 88.751632691000168, 27.148181916000055 ], [ 88.751525878000109, 27.148153305000108 ], [ 88.751380921000134, 27.148117066 ], [ 88.749206542000081, 27.147653580000053 ], [ 88.747116089000031, 27.145574570000178 ], [ 88.746940613000106, 27.145364762000042 ], [ 88.737182616000155, 27.139520646000165 ], [ 88.732536316000107, 27.137350082000182 ], [ 88.724540711000145, 27.138521194000077 ], [ 88.717796325000108, 27.143970489000026 ], [ 88.714965820000089, 27.150239945000067 ], [ 88.711807252000085, 27.165149689000032 ], [ 88.701972961000195, 27.174110412000061 ], [ 88.691497803000175, 27.17869949400017 ], [ 88.684410096000192, 27.180229188000112 ], [ 88.680366516000106, 27.179510117000177 ], [ 88.673500062000073, 27.176610946000039 ], [ 88.668067932000042, 27.171989442000097 ], [ 88.659599303, 27.162210464000111 ], [ 88.656455993000179, 27.16240120000009 ], [ 88.642486571, 27.167158126000061 ], [ 88.63875579900008, 27.16772079500015 ], [ 88.633277892000081, 27.174530029000096 ], [ 88.619018554000093, 27.187852860000078 ], [ 88.606788636000033, 27.189661026000124 ], [ 88.603523255000084, 27.191152573000181 ], [ 88.598106384000175, 27.191371918000129 ], [ 88.59751892100013, 27.192710876000035 ], [ 88.594001769000101, 27.191181184000129 ], [ 88.591476441000054, 27.194459915000095 ], [ 88.587020875000178, 27.190532684000118 ], [ 88.585090637000178, 27.192832947000113 ], [ 88.566291808000187, 27.187860489000116 ], [ 88.558990479000158, 27.188751219999972 ], [ 88.5408401480002, 27.183710099000052 ], [ 88.528999328000168, 27.177761078000174 ], [ 88.520751954000048, 27.178180695000151 ], [ 88.520477294000045, 27.175029755000025 ], [ 88.529808044000106, 27.165790559000129 ], [ 88.526725769000052, 27.160272598000176 ], [ 88.532028198000091, 27.154329300000143 ], [ 88.529930115000127, 27.150150299000131 ], [ 88.526741028000174, 27.149772644000052 ], [ 88.521713257000101, 27.150342941000076 ], [ 88.518707276000157, 27.147800446000133 ], [ 88.515960693000181, 27.143739701000129 ], [ 88.512229920000152, 27.141031266000141 ], [ 88.507507324000187, 27.135990143000186 ], [ 88.502952575, 27.134050369000079 ], [ 88.498901368000077, 27.131219864000116 ], [ 88.496406556000068, 27.128152848000184 ], [ 88.495613099000082, 27.125360490000048 ], [ 88.491851807000103, 27.1248703 ], [ 88.486686706, 27.126779556000088 ], [ 88.481277465000176, 27.122850417000109 ], [ 88.47377777100013, 27.120700836000026 ], [ 88.469078063000154, 27.117301942000154 ], [ 88.466720580000015, 27.113941192000084 ], [ 88.464797973000032, 27.10479164100002 ], [ 88.460182191000058, 27.095849992000126 ], [ 88.45449829000006, 27.089649200999986 ], [ 88.446281432000148, 27.085399627000129 ], [ 88.439620972000114, 27.084169387000088 ], [ 88.431945800999983, 27.081609727000057 ], [ 88.429145812000058, 27.083620071000155 ], [ 88.411003112000117, 27.090700150000032 ], [ 88.397659301000147, 27.094430923000061 ], [ 88.387519836000081, 27.098409651999987 ], [ 88.370651246000079, 27.099412919000144 ], [ 88.363876343000015, 27.098421097000141 ], [ 88.352302551000037, 27.101070404000097 ], [ 88.347938537000118, 27.103321075000053 ], [ 88.34516143899998, 27.106901170000071 ], [ 88.340797424000129, 27.110670089000052 ], [ 88.331741333000195, 27.108167649000109 ], [ 88.323837280000191, 27.104900361000148 ], [ 88.320075987999985, 27.107320787000049 ], [ 88.320487975000106, 27.116640091000193 ], [ 88.318817139000032, 27.119340898000075 ], [ 88.311271668000188, 27.12535095200019 ], [ 88.304496766000057, 27.12860107400013 ], [ 88.299888609999982, 27.127998353000123 ], [ 88.294906616000105, 27.12477111700008 ], [ 88.278137208000089, 27.130830766000088 ], [ 88.277351378999981, 27.131191253000168 ], [ 88.270889281000166, 27.130130768000072 ], [ 88.263458253000124, 27.127370834000146 ], [ 88.251548767000088, 27.125360490000048 ], [ 88.240066529000046, 27.12037086600003 ], [ 88.232505797999977, 27.119768142999988 ], [ 88.226905823000038, 27.121389389000058 ], [ 88.22151184, 27.12527084300001 ], [ 88.213836670000035, 27.135122300000035 ], [ 88.209869384000058, 27.133401871000103 ], [ 88.195617675999983, 27.136230469000168 ], [ 88.188507081000068, 27.134420394000074 ], [ 88.18367767400008, 27.135200501000043 ], [ 88.17899322500017, 27.134710312999971 ], [ 88.172607423000102, 27.130319595000117 ], [ 88.158439637000072, 27.114351274000057 ], [ 88.155441284000062, 27.112100601000122 ], [ 88.15231323200004, 27.111709595000093 ], [ 88.143775940000126, 27.117071151000175 ], [ 88.136627197000109, 27.116878510000106 ], [ 88.126907349000192, 27.123081208000144 ], [ 88.12329101500012, 27.123790741000107 ], [ 88.095939636000026, 27.13550949100005 ], [ 88.092666627000028, 27.136278154000138 ], [ 88.088638306000064, 27.138750077000111 ], [ 88.085845947000053, 27.141510009 ], [ 88.083831788000111, 27.145019531000173 ], [ 88.0829925540001, 27.14893913200018 ], [ 88.08390808200005, 27.161069871000166 ], [ 88.083259582000039, 27.165042877000076 ], [ 88.078697205000083, 27.167921067000179 ], [ 88.073097230000087, 27.174417496000103 ], [ 88.072326659000055, 27.179340362000119 ], [ 88.069267273000037, 27.184949875000143 ], [ 88.06745147800018, 27.190269471000136 ], [ 88.06883239800004, 27.194351197000174 ], [ 88.075408936000088, 27.198801041000081 ], [ 88.074951172, 27.20083999700006 ], [ 88.068237305000082, 27.204730987000119 ], [ 88.064338685000109, 27.207830429000069 ], [ 88.061737060000041, 27.21129989700006 ], [ 88.058197022000058, 27.213890076000041 ], [ 88.04676055900012, 27.216110230000083 ], [ 88.03292846800008, 27.221031190000076 ], [ 88.023986816000104, 27.220661163000102 ], [ 88.016967773000147, 27.218872071000078 ], [ 88.021492004000095, 27.224729539000123 ], [ 88.021629333000192, 27.228885651000098 ], [ 88.021858216, 27.235546113000169 ], [ 88.024314879000144, 27.237415313000099 ], [ 88.027458191000164, 27.236907959000064 ], [ 88.026840210000103, 27.241756439000085 ], [ 88.030319213000098, 27.249114991 ], [ 88.03341674800015, 27.249715805000164 ], [ 88.033386230000133, 27.251579284000059 ], [ 88.033218384000122, 27.2630157480001 ], [ 88.034416198000088, 27.265615464000064 ], [ 88.032913207000149, 27.27171516500016 ], [ 88.035614014000089, 27.281415940000159 ], [ 88.034294129000045, 27.285995484000182 ], [ 88.040763855000137, 27.291435242000148 ], [ 88.046508789000086, 27.29244232200017 ], [ 88.043640137000068, 27.301126481000097 ], [ 88.044113159000119, 27.304016114000149 ], [ 88.047714233000193, 27.309856415000127 ], [ 88.051116943000181, 27.312314988000082 ], [ 88.052032471000075, 27.318447113000047 ], [ 88.055221557000152, 27.324300767000125 ], [ 88.062736512000129, 27.328256607000071 ], [ 88.066116333000082, 27.334115982000185 ], [ 88.069213868000134, 27.335580826000069 ], [ 88.068855286000144, 27.336641313000143 ], [ 88.067314149000083, 27.341014863000169 ], [ 88.065635681000117, 27.342695236 ], [ 88.064414978000116, 27.343915939000055 ], [ 88.062438965000126, 27.349275590000047 ], [ 88.06026458700012, 27.355340959000159 ], [ 88.052818298000147, 27.358314514000085 ], [ 88.044418334000056, 27.370716095000034 ], [ 88.04761505100015, 27.379714966000051 ], [ 88.046722412000122, 27.384296418000076 ], [ 88.047317505000024, 27.389616013000136 ], [ 88.04846191300004, 27.39548111 ], [ 88.051116943000181, 27.400615693000191 ], [ 88.049415588000159, 27.405216216000099 ], [ 88.052192688000105, 27.40691375800003 ], [ 88.053215026000146, 27.412614823000013 ], [ 88.059463501000096, 27.418045045000099 ], [ 88.06076049700016, 27.418222428000092 ], [ 88.06912994400011, 27.424613953000062 ], [ 88.069717407000155, 27.425014496000074 ], [ 88.082618714000091, 27.42641449000007 ], [ 88.082885741000098, 27.42953300500011 ], [ 88.08213043100011, 27.43057823200013 ], [ 88.082115173000091, 27.430715561000056 ], [ 88.081993102000013, 27.43076896600013 ], [ 88.081268311000031, 27.431768418000047 ], [ 88.075416564000136, 27.433614732000024 ], [ 88.075256349000142, 27.433778762000088 ], [ 88.070869155000025, 27.438161883000134 ], [ 88.07048, 27.438532000000123 ], [ 88.073376469000038, 27.442784790000076 ], [ 88.074103998999988, 27.443853 ], [ 88.074309817000142, 27.44415992900008 ], [ 88.075019835000091, 27.445219041000144 ], [ 88.069816589000197, 27.44931602500003 ], [ 88.068969786000196, 27.452150148000158 ], [ 88.06859100000014, 27.452412000000152 ], [ 88.068345904000068, 27.45258168200013 ], [ 88.068122864000088, 27.45273590100004 ], [ 88.06970977900005, 27.457618714000148 ], [ 88.063003540000182, 27.460847855000111 ], [ 88.062901233000161, 27.461023130000115 ], [ 88.062835466000138, 27.461135803000104 ], [ 88.062744140000063, 27.461292265999987 ], [ 88.061728961000142, 27.463047352999979 ], [ 88.061268143000063, 27.46384403400009 ], [ 88.059318542000142, 27.467214584000089 ], [ 88.059017158000074, 27.467420073000142 ], [ 88.058848427000044, 27.467535117000068 ], [ 88.058731079000097, 27.467615128000034 ], [ 88.053802438000048, 27.471536651000065 ], [ 88.053679711000143, 27.471570237000151 ], [ 88.053412328000093, 27.471643411000173 ], [ 88.05251312300004, 27.471889496000188 ], [ 88.050089073000038, 27.474571474000072 ], [ 88.048769539000091, 27.476031412000054 ], [ 88.046615601000042, 27.478414536000059 ], [ 88.047805785000094, 27.481342316 ], [ 88.047637342000144, 27.481812732000037 ], [ 88.047471147000124, 27.482276870000078 ], [ 88.046600341000044, 27.484708786 ], [ 88.047202991000177, 27.492658883000104 ], [ 88.047062798000184, 27.493159699000159 ], [ 88.046654573000069, 27.49461803000014 ], [ 88.046333313000162, 27.49576568700013 ], [ 88.049217224000131, 27.501214982000079 ], [ 88.049752344000126, 27.501581180000187 ], [ 88.051042889000087, 27.502464337000163 ], [ 88.053428651000104, 27.504096985000047 ], [ 88.057418823000035, 27.50431442200005 ], [ 88.060119629000042, 27.509214402000111 ], [ 88.062975907000123, 27.511073163000162 ], [ 88.064117000000124, 27.511816 ], [ 88.060019999000133, 27.516716000000145 ], [ 88.064018, 27.525116 ], [ 88.069839000000172, 27.526093 ], [ 88.069138291000172, 27.527210459000059 ], [ 88.068310007000036, 27.528531025000063 ], [ 88.067817688000105, 27.529315949000193 ], [ 88.066131591000101, 27.52990913400015 ], [ 88.062414064999984, 27.531224102000067 ], [ 88.062057495000147, 27.532718658000078 ], [ 88.061927777000108, 27.5333448 ], [ 88.061827762000064, 27.533827568000163 ], [ 88.061660767000035, 27.534633636000081 ], [ 88.061643673000049, 27.534722312000156 ], [ 88.06163662300014, 27.534758884000155 ], [ 88.061630250000064, 27.534791946000041 ], [ 88.063507081000182, 27.539754868000159 ], [ 88.065899369000078, 27.542459195000163 ], [ 88.067358079000144, 27.544108079000182 ], [ 88.067718755000158, 27.544515778000061 ], [ 88.071173765000196, 27.546086798000033 ], [ 88.071205, 27.546101001000068 ], [ 88.071823, 27.555546 ], [ 88.074208446000057, 27.556549699000016 ], [ 88.076514571000132, 27.557520257000022 ], [ 88.078643800000179, 27.55841636700012 ], [ 88.083617985999979, 27.564615030000084 ], [ 88.082015991000048, 27.56809806900003 ], [ 88.077819973000146, 27.571815359000141 ], [ 88.082302770000069, 27.580085628000063 ], [ 88.082574633000092, 27.580587161000096 ], [ 88.087135315000126, 27.589000703000067 ], [ 88.095413208000195, 27.597314835000191 ], [ 88.108215333000089, 27.602315902000157 ], [ 88.116317758000037, 27.610349713000119 ], [ 88.116566683000087, 27.611976133000042 ], [ 88.116747243000134, 27.613155879000089 ], [ 88.116882324000187, 27.61403846900015 ], [ 88.117586365000079, 27.618636723000066 ], [ 88.117844295000111, 27.620321328000102 ], [ 88.117919923000159, 27.62081527700002 ], [ 88.12131966200019, 27.625831742000059 ], [ 88.122131000000138, 27.627029000000164 ], [ 88.120766676000073, 27.62856232200005 ], [ 88.119918824000081, 27.629514694000136 ], [ 88.120910641000194, 27.632367290000104 ], [ 88.123283880000145, 27.639193518000184 ], [ 88.123290976000192, 27.639213930000096 ], [ 88.123264674000154, 27.639453817000174 ], [ 88.123227039000142, 27.639797062000014 ], [ 88.122627271999988, 27.645267369000123 ], [ 88.133819580000022, 27.655115129000137 ], [ 88.139816026000062, 27.657215029000156 ], [ 88.139935510000157, 27.657346726000128 ], [ 88.140265999000064, 27.657711001000166 ], [ 88.140296062000175, 27.657744088000129 ], [ 88.143773, 27.661571 ], [ 88.145036622000191, 27.66296163700008 ], [ 88.147254945000157, 27.665403366000078 ], [ 88.148223878000124, 27.671552658999985 ], [ 88.148730872000158, 27.674646624000104 ], [ 88.149023006000164, 27.676429391000113 ], [ 88.149414063000108, 27.67881584200012 ], [ 88.149639292000131, 27.679408010000088 ], [ 88.149937286000124, 27.680191486000069 ], [ 88.150329589000137, 27.681222917000071 ], [ 88.151359558000195, 27.683795930000031 ], [ 88.157424919000164, 27.69042014300004 ], [ 88.150993, 27.701681001000054 ], [ 88.15090922700017, 27.70166005700014 ], [ 88.15071106, 27.702007294000168 ], [ 88.151977539000086, 27.707904815000063 ], [ 88.158119202000137, 27.717214584000033 ], [ 88.157333375, 27.729154588000142 ], [ 88.161048889000142, 27.740617753000095 ], [ 88.172355651000089, 27.741340637000064 ], [ 88.181213379000042, 27.746814728000118 ], [ 88.179313660000162, 27.758115768000096 ], [ 88.183441163000168, 27.761503219000133 ], [ 88.186035157, 27.766065598000068 ], [ 88.185241700000176, 27.76721954400017 ], [ 88.184219360000156, 27.768815994000079 ], [ 88.184234618000175, 27.769212723000123 ], [ 88.184417724000014, 27.774515151000116 ], [ 88.187896729000045, 27.777000428000122 ], [ 88.190750123000043, 27.78123664900005 ], [ 88.197944641000049, 27.786329270000181 ], [ 88.199920655000142, 27.790529252000056 ], [ 88.196495055000014, 27.796003343000109 ], [ 88.192520141000102, 27.797914505000108 ], [ 88.189514159999987, 27.80121612500011 ], [ 88.187896729000045, 27.810306549000131 ], [ 88.181526184000063, 27.815536499000132 ], [ 88.17998504600007, 27.816028594000102 ], [ 88.176116943000068, 27.817316055000106 ], [ 88.175720214000194, 27.820215225000027 ], [ 88.190132142000152, 27.825096131000123 ], [ 88.197219849000135, 27.835515977000171 ], [ 88.199386598000103, 27.836095809000028 ], [ 88.203926086000195, 27.837314606000064 ], [ 88.20401001, 27.842405320000069 ], [ 88.200691224000195, 27.845510483000055 ], [ 88.200164795000092, 27.847969056000181 ], [ 88.198913573000141, 27.853515626000103 ], [ 88.195526122000047, 27.854532243000108 ], [ 88.191017151000096, 27.853715897000029 ], [ 88.187896729000045, 27.856536865000066 ], [ 88.183425903000114, 27.856456756000057 ], [ 88.180938721000018, 27.856412889000069 ], [ 88.177055359000065, 27.86096954500016 ], [ 88.175216675000172, 27.863122940999972 ], [ 88.174621582000043, 27.863367080000046 ], [ 88.169754029000103, 27.865360261000035 ], [ 88.168563843000015, 27.866552354000135 ], [ 88.16689300500019, 27.868217469000172 ], [ 88.156578064000144, 27.870456697000179 ], [ 88.15634918100011, 27.87072181700006 ], [ 88.151313783000035, 27.876514436000036 ], [ 88.145614623000142, 27.878114701000186 ], [ 88.141914367000197, 27.87741470300017 ], [ 88.137542725000174, 27.881492614000138 ], [ 88.129981995000037, 27.881515503000173 ], [ 88.130203246000121, 27.881919861000085 ], [ 88.129928588000155, 27.885938645000067 ], [ 88.127380371000072, 27.891290666000089 ], [ 88.126281737000113, 27.895090104000076 ], [ 88.125762940000129, 27.895320892000143 ], [ 88.125228883000034, 27.896438599000192 ], [ 88.122947693000128, 27.897590638 ], [ 88.122459411000079, 27.898830414000088 ], [ 88.121650695000142, 27.900270462000037 ], [ 88.119590759, 27.902070999000102 ], [ 88.118797302000189, 27.902509689000169 ], [ 88.117507934000116, 27.90559959400008 ], [ 88.116752625000061, 27.906021118000183 ], [ 88.116600036000136, 27.907180786000026 ], [ 88.113891602000194, 27.912191390000146 ], [ 88.113662721000196, 27.915838241000188 ], [ 88.113578797000173, 27.917610169000056 ], [ 88.116806031000181, 27.925781250000171 ], [ 88.125869751000153, 27.934429169000111 ], [ 88.128868103000059, 27.938299179000182 ], [ 88.128952027000082, 27.939849854000158 ], [ 88.128807068000071, 27.945529937000174 ], [ 88.123703004, 27.947980882000024 ], [ 88.123657227000024, 27.950241088000155 ], [ 88.123908996000182, 27.950920105000137 ], [ 88.129981995000037, 27.955940247000171 ], [ 88.133087159000127, 27.961610794000137 ], [ 88.134742736000021, 27.962980270000116 ], [ 88.139060974000131, 27.963479996000103 ], [ 88.139816284000062, 27.963260651000155 ], [ 88.140007018000063, 27.963182450000147 ], [ 88.146766662000175, 27.960514069000112 ], [ 88.147201538000047, 27.960342407000098 ], [ 88.153686524000193, 27.957780839000065 ], [ 88.167228699000077, 27.948272706000182 ], [ 88.173622131000059, 27.944709779 ], [ 88.17566680900012, 27.94427108800005 ], [ 88.182762146000186, 27.943561555000031 ], [ 88.188659668000184, 27.943679810000162 ], [ 88.192932128, 27.945451736000052 ], [ 88.19476318400018, 27.946210862000157 ], [ 88.195549011000082, 27.946918487000175 ], [ 88.195762633000186, 27.94711112900012 ], [ 88.197135925000111, 27.950500488000159 ], [ 88.199226380000141, 27.957969665000064 ], [ 88.199707031000059, 27.960479736000025 ], [ 88.200286865000066, 27.961484910000024 ], [ 88.202590943000075, 27.96548080499997 ], [ 88.203491210000095, 27.966150284000037 ], [ 88.203475952000076, 27.966619491000074 ], [ 88.20980834900007, 27.967781067000089 ], [ 88.211303711000141, 27.967159271000128 ], [ 88.214118958000142, 27.965990066000131 ], [ 88.215270997000118, 27.965570449000097 ], [ 88.215843201000041, 27.965360642000064 ], [ 88.21663665900013, 27.96496772800009 ], [ 88.218017578000115, 27.964460374 ], [ 88.221572875, 27.964019776000157 ], [ 88.222335816000168, 27.964260102000139 ], [ 88.223129272999984, 27.964477540000189 ], [ 88.226150512000117, 27.967220306000115 ], [ 88.229698181000117, 27.967920304000131 ], [ 88.230186461000017, 27.967773437000119 ], [ 88.230468750000057, 27.967689513000153 ], [ 88.230979919000163, 27.967220306000115 ], [ 88.232772827000133, 27.965879441000084 ], [ 88.23297119200015, 27.964921951000122 ], [ 88.23517608700007, 27.954139711000096 ], [ 88.237472535000165, 27.952590943000189 ], [ 88.237716674000012, 27.951469421000127 ], [ 88.237731935000113, 27.950550080000141 ], [ 88.238250732000154, 27.950349808000112 ], [ 88.238258362000067, 27.949890137000182 ], [ 88.243888856000183, 27.948539734000065 ], [ 88.247932435000166, 27.950101852000046 ], [ 88.24817657400007, 27.950195313000052 ], [ 88.248245240000017, 27.95028305000011 ], [ 88.248435974000188, 27.95083046100018 ], [ 88.258827209000117, 27.956319810000082 ], [ 88.260856628000056, 27.956569672000114 ], [ 88.261627197000166, 27.956340789000137 ], [ 88.265197754000098, 27.956590652999978 ], [ 88.270523071000071, 27.95831108100009 ], [ 88.271026612000071, 27.958080293000137 ], [ 88.271232605000193, 27.958171845000095 ], [ 88.271537781000177, 27.95831108100009 ], [ 88.272048950000112, 27.958440780000046 ], [ 88.274826050000058, 27.960510254000042 ], [ 88.275611877000131, 27.961235046000127 ], [ 88.27671051100009, 27.964361192000183 ], [ 88.276817321000067, 27.96548080499997 ], [ 88.279487609000171, 27.967321396000159 ], [ 88.280059813000094, 27.967611312000145 ], [ 88.280380248000029, 27.967781067000089 ], [ 88.286071777000132, 27.96846198999998 ], [ 88.290077210000163, 27.968940734000171 ], [ 88.293861390000131, 27.968069076000177 ], [ 88.304786682000099, 27.969961167000122 ], [ 88.308891297000173, 27.972681045000115 ], [ 88.310050964000084, 27.973989486000107 ], [ 88.313919067000143, 27.978361131000099 ], [ 88.316192626000031, 27.979721070000039 ], [ 88.322906494000108, 27.981319427000074 ], [ 88.323921204000044, 27.981100082000125 ], [ 88.327499389000025, 27.981920243000047 ], [ 88.329147339000144, 27.982500077000054 ], [ 88.331832887000132, 27.984750748000181 ], [ 88.332427979000158, 27.985900879000042 ], [ 88.335021973000039, 27.987020492000056 ], [ 88.337760925000168, 27.987989427 ], [ 88.345191955000018, 27.989480972000081 ], [ 88.350212097999986, 27.989629746000105 ], [ 88.350982666000164, 27.989852905000191 ], [ 88.354209900000058, 27.989419937000093 ], [ 88.363761903000182, 27.988140106000174 ], [ 88.374748230000137, 27.98367118900012 ], [ 88.38166046200007, 27.97986984400012 ], [ 88.38166046200007, 27.979408265000188 ], [ 88.38880157400007, 27.977840424000078 ], [ 88.389801025999986, 27.978080750000061 ], [ 88.394020081000122, 27.979730607000079 ], [ 88.396057129000098, 27.981100082000125 ], [ 88.400718690000076, 27.983341217000032 ], [ 88.402000427000132, 27.9835910810001 ], [ 88.4042892450002, 27.986740113000053 ], [ 88.406562806000068, 27.987899780000134 ], [ 88.408798218000129, 27.992441178000036 ], [ 88.409942627000021, 27.993568421000134 ], [ 88.411727906000067, 27.99562072700013 ], [ 88.412330627000074, 27.996980668000106 ], [ 88.42350006200013, 28.005630494000116 ], [ 88.423477173000094, 28.006069184000182 ], [ 88.424758911000083, 28.006530761000079 ], [ 88.426536560000159, 28.008119583000109 ], [ 88.427070617000027, 28.008329392000121 ], [ 88.432586670000035, 28.010400772000082 ], [ 88.450942993000126, 28.015010833000076 ], [ 88.455856323000035, 28.017198563000079 ], [ 88.461601258000144, 28.019809723000094 ], [ 88.46462249700005, 28.023199082000133 ], [ 88.469177245000196, 28.032859802000132 ], [ 88.471656799000186, 28.036809922000089 ], [ 88.477981568000075, 28.04257965 ], [ 88.481857299000012, 28.045009614000151 ], [ 88.483116151000104, 28.045587541000089 ], [ 88.489669800000115, 28.048078538000084 ], [ 88.501136780000138, 28.048931123000159 ], [ 88.501670838000109, 28.048698426000044 ], [ 88.501663208000195, 28.048250198000062 ], [ 88.501678466000044, 28.047790527000132 ], [ 88.502929687000062, 28.047130586000151 ], [ 88.506996155000081, 28.046480180000174 ], [ 88.51671600300017, 28.044019700000149 ], [ 88.520835876000092, 28.041088105000142 ], [ 88.521102906000124, 28.040180207000162 ], [ 88.521080017000088, 28.039739609000151 ], [ 88.522369385000047, 28.039051057000165 ], [ 88.522361755000134, 28.038589478000063 ], [ 88.527763368000194, 28.036821365000094 ], [ 88.531547545000024, 28.036380767000026 ], [ 88.533340454000154, 28.036619186000109 ], [ 88.53801727300015, 28.038480758000162 ], [ 88.538246154000149, 28.03857040500003 ], [ 88.538948059000063, 28.038890839000089 ], [ 88.540977477000126, 28.040479659000084 ], [ 88.54273986700008, 28.044120790000136 ], [ 88.542877196000177, 28.049682618000077 ], [ 88.542930604000162, 28.050460817000101 ], [ 88.54367828400018, 28.052520753000181 ], [ 88.545051575000059, 28.053871154000092 ], [ 88.548812867000038, 28.058944702000133 ], [ 88.550422667000191, 28.061120987000152 ], [ 88.551773071000184, 28.063810349999983 ], [ 88.552276612000185, 28.065401077000104 ], [ 88.552467346000185, 28.077619552000044 ], [ 88.554450989000088, 28.084831238000049 ], [ 88.558280945000035, 28.087560653000025 ], [ 88.566917420000095, 28.088981629000159 ], [ 88.567749024000136, 28.088460921999967 ], [ 88.570762635, 28.086509706000186 ], [ 88.574836731000119, 28.085609436000141 ], [ 88.576576233000196, 28.086280822999981 ], [ 88.585510254000155, 28.090171815000076 ], [ 88.587562560000151, 28.091300965000073 ], [ 88.589080811000088, 28.091539384000157 ], [ 88.590370179, 28.091318131000037 ], [ 88.595169067000029, 28.095630646000075 ], [ 88.596046448000095, 28.096929550000084 ], [ 88.602790833000086, 28.098369599000137 ], [ 88.605407714000137, 28.099660875000041 ], [ 88.613449096000068, 28.102560043000096 ], [ 88.616462707000096, 28.10367965800009 ], [ 88.613578797000059, 28.108690263000028 ], [ 88.612159730000144, 28.109931946000131 ], [ 88.611557007000101, 28.115779877000023 ], [ 88.610832215000187, 28.118740081 ], [ 88.610466003000056, 28.119630813000185 ], [ 88.606887818000018, 28.122810364000088 ], [ 88.606727601000046, 28.126180650000038 ], [ 88.60746765100015, 28.127550124000038 ], [ 88.611816407000049, 28.129610061000051 ], [ 88.621238708000135, 28.130968094000025 ], [ 88.625236511000082, 28.128261567000038 ], [ 88.626876832000164, 28.127149583 ], [ 88.626876832000164, 28.126689911000028 ], [ 88.626892090000183, 28.126260759000047 ], [ 88.628952027000196, 28.124689103000037 ], [ 88.629699707000043, 28.124469757000156 ], [ 88.629707337000127, 28.124019624000141 ], [ 88.630493164000029, 28.123798371000191 ], [ 88.63173675500019, 28.121097564000138 ], [ 88.632263184000124, 28.120861053000169 ], [ 88.632766723000145, 28.120630265000102 ], [ 88.63506317100007, 28.113061905000052 ], [ 88.636390686000027, 28.108682633000058 ], [ 88.63768768400007, 28.10437011800002 ], [ 88.639358520000144, 28.103111267000088 ], [ 88.641242981000175, 28.101720811000121 ], [ 88.645256043000188, 28.099121094000054 ], [ 88.654106141000057, 28.089839935000157 ], [ 88.661102296000138, 28.079639434000171 ], [ 88.666770934000169, 28.074079514000061 ], [ 88.672805787000073, 28.072839738000141 ], [ 88.673316956000178, 28.073070526000038 ], [ 88.67363739100017, 28.073272706000068 ], [ 88.675109863000102, 28.074201584000036 ], [ 88.677116394000166, 28.077379226000062 ], [ 88.685798646000137, 28.07897949300019 ], [ 88.695220947000053, 28.076980592000098 ], [ 88.697853088000102, 28.077369690000126 ], [ 88.703887939000197, 28.078130723000129 ], [ 88.714340211000092, 28.075691224000025 ], [ 88.719436645000087, 28.076370239000141 ], [ 88.729141235000156, 28.075281143000097 ], [ 88.74034881700004, 28.075990678000096 ], [ 88.748054505000084, 28.074066163000111 ], [ 88.751083375, 28.073312760000192 ], [ 88.753616334000071, 28.071939468000096 ], [ 88.753639222, 28.071500778000029 ], [ 88.756149292000032, 28.069711686000119 ], [ 88.768035889000089, 28.061241150000058 ], [ 88.768272400000171, 28.060630798000034 ], [ 88.768806458000142, 28.060630798000034 ], [ 88.769126893000077, 28.06040001000008 ], [ 88.770751954000161, 28.059120178000057 ], [ 88.770744324000077, 28.058944702000133 ], [ 88.770736694000163, 28.05866050800006 ], [ 88.77076721200018, 28.058200837000129 ], [ 88.773323060000109, 28.056861877000188 ], [ 88.782287597000106, 28.050769806000176 ], [ 88.782546997000111, 28.049619675000145 ], [ 88.782806397000058, 28.048490524000044 ], [ 88.783561707000047, 28.048032761000115 ], [ 88.784317017000149, 28.04760170000003 ], [ 88.785621643000127, 28.044240953000042 ], [ 88.786636353000063, 28.043550491000133 ], [ 88.786636353000063, 28.043100357000185 ], [ 88.794715882, 28.037042618000157 ], [ 88.79473114000001, 28.036598205000075 ], [ 88.794982910000101, 28.036390305000111 ], [ 88.796096802000079, 28.03590011700004 ], [ 88.797492980000129, 28.03277969300018 ], [ 88.797660828000119, 28.032470704000104 ], [ 88.799430848000043, 28.031120301000158 ], [ 88.799446106000062, 28.030691148000074 ], [ 88.802268981000111, 28.028774261000024 ], [ 88.805328369000108, 28.026700973000061 ], [ 88.805328369000108, 28.026250840000046 ], [ 88.805603027000132, 28.02609062200014 ], [ 88.807868958000086, 28.025270462000094 ], [ 88.816703797000059, 28.020980835000046 ], [ 88.819259644000056, 28.01974106 ], [ 88.820709228000055, 28.018978119000053 ], [ 88.8253479, 28.017059327000084 ], [ 88.829055786000197, 28.015159608000033 ], [ 88.832901001000153, 28.011539460000165 ], [ 88.834632873000089, 28.000408174000029 ], [ 88.835647583000195, 27.999490738000134 ], [ 88.835716248000097, 27.999120712999968 ], [ 88.836250306000068, 27.998899461000178 ], [ 88.836250306000068, 27.998212814000112 ], [ 88.836776733000193, 27.996850967000114 ], [ 88.839057922000165, 27.995059968000191 ], [ 88.840881348000039, 27.991001130000086 ], [ 88.840293885000051, 27.976802825000107 ], [ 88.839813233000086, 27.965230943000108 ], [ 88.83995819200004, 27.964109421000046 ], [ 88.843009948000145, 27.961610794000137 ], [ 88.844070435000049, 27.956422805000159 ], [ 88.839729309000063, 27.952791215000047 ], [ 88.836448670000095, 27.947359085000187 ], [ 88.836418150999975, 27.944919586000026 ], [ 88.836250306000068, 27.932001114000172 ], [ 88.839546203000168, 27.930419922000112 ], [ 88.841781615000059, 27.929830552000169 ], [ 88.853530883000133, 27.926731109000173 ], [ 88.854438781000113, 27.926488877000168 ], [ 88.858947754000098, 27.925270081000065 ], [ 88.861236572000109, 27.92346191300004 ], [ 88.864807129000042, 27.913061143000107 ], [ 88.86682891900017, 27.909099580000145 ], [ 88.870231628000056, 27.90242958000016 ], [ 88.870719909000059, 27.902439118000075 ], [ 88.870742797000162, 27.901979447000144 ], [ 88.871467591000112, 27.901819229000012 ], [ 88.877250672000116, 27.897491456000182 ], [ 88.879676818000121, 27.895679474000133 ], [ 88.879661560000102, 27.895259857000156 ], [ 88.880187987000056, 27.89524078300019 ], [ 88.880462647000058, 27.893659592000176 ], [ 88.880500794000113, 27.893209458000058 ], [ 88.881011963000049, 27.893209458000058 ], [ 88.881385803000057, 27.892530441000133 ], [ 88.881362915000125, 27.889049531000069 ], [ 88.880935670000042, 27.886383056000113 ], [ 88.879966737000075, 27.880310059000067 ], [ 88.880767822000166, 27.870140077000087 ], [ 88.880897523000158, 27.869840623000186 ], [ 88.881767274000083, 27.867870331000063 ], [ 88.884567260000097, 27.865390777000073 ], [ 88.885742188000165, 27.861337662000153 ], [ 88.88564300500002, 27.859058380000022 ], [ 88.885398864000194, 27.858917236000082 ], [ 88.88297271800019, 27.857490539000082 ], [ 88.882865905000131, 27.857030868000152 ], [ 88.882095337000123, 27.855442048000157 ], [ 88.882087707000039, 27.855308532000095 ], [ 88.8809967050002, 27.838960648000182 ], [ 88.880386352000073, 27.837600708000082 ], [ 88.878967285000158, 27.837141038000084 ], [ 88.877822876000039, 27.836240769000085 ], [ 88.877090455000086, 27.833971025000096 ], [ 88.876663207000092, 27.833379745000173 ], [ 88.87623596200018, 27.832630157000153 ], [ 88.875282287000061, 27.831069946000127 ], [ 88.873031616999981, 27.827390671000046 ], [ 88.868301393000138, 27.824541093 ], [ 88.867523194000114, 27.824600220000036 ], [ 88.86553955100004, 27.823680878000175 ], [ 88.862342834000174, 27.821750642000154 ], [ 88.855735779000156, 27.818122864000031 ], [ 88.855377197000166, 27.817888261000064 ], [ 88.854263305000188, 27.816522599000052 ], [ 88.854125976000091, 27.814950943000042 ], [ 88.854637145000197, 27.814741134000144 ], [ 88.854766846000189, 27.813600540000095 ], [ 88.85527038500004, 27.812450409000064 ], [ 88.857322693000185, 27.811340332000157 ], [ 88.857452392000141, 27.808162690000131 ], [ 88.856826783000031, 27.798879623000062 ], [ 88.852333069000167, 27.778320312000119 ], [ 88.852607727000134, 27.768350602000112 ], [ 88.85431671200007, 27.760370256000101 ], [ 88.854576110000039, 27.759330750000061 ], [ 88.855926513000099, 27.756940843000109 ], [ 88.856948853000176, 27.75601959200003 ], [ 88.85752868600008, 27.754590988000132 ], [ 88.858528137000064, 27.753690720000066 ], [ 88.859527587000173, 27.753009796000015 ], [ 88.861366273000101, 27.748941423000133 ], [ 88.862380981, 27.739000320000116 ], [ 88.861076354000147, 27.735830308000061 ], [ 88.854286194000053, 27.730171203000168 ], [ 88.85372924800015, 27.729145050000056 ], [ 88.851516724000192, 27.724050522000084 ], [ 88.850517272000104, 27.718200685 ], [ 88.850006103000169, 27.717531204000124 ], [ 88.841278076000037, 27.71206283500004 ], [ 88.838882447000117, 27.711162568000077 ], [ 88.838623047000169, 27.710470200000145 ], [ 88.838638305000188, 27.708219529000189 ], [ 88.839401246000193, 27.70572090200011 ], [ 88.839889526000093, 27.705511093000098 ], [ 88.840408325999988, 27.705278397000029 ], [ 88.841178894000166, 27.702810287999966 ], [ 88.845527648000086, 27.700311661000114 ], [ 88.845520019999981, 27.694431306000183 ], [ 88.844169617000091, 27.688922883000146 ], [ 88.844497680000131, 27.685941696000157 ], [ 88.845008851000046, 27.681619643000033 ], [ 88.845260620000033, 27.680700303000151 ], [ 88.845458985, 27.680080414000145 ], [ 88.846733092000193, 27.67558288500004 ], [ 88.846611024000197, 27.669040681000183 ], [ 88.846611024000197, 27.668899537000073 ], [ 88.845626830000128, 27.667238237000106 ], [ 88.843109130000187, 27.662998200000175 ], [ 88.838439941000104, 27.658710480000138 ], [ 88.836791991000041, 27.65756988600009 ], [ 88.834121704000154, 27.653322220000177 ], [ 88.832237243000122, 27.650329590000183 ], [ 88.826019287000065, 27.645469667000157 ], [ 88.822326661000034, 27.642839431000141 ], [ 88.820732116000045, 27.642290115000151 ], [ 88.819816589000197, 27.641941071000076 ], [ 88.815528870000094, 27.642669678000061 ], [ 88.813751221000189, 27.643320084000038 ], [ 88.813201904000096, 27.643520355000192 ], [ 88.810676575000173, 27.642820358000051 ], [ 88.809906006000062, 27.641918183000143 ], [ 88.807136536000087, 27.636259080000059 ], [ 88.806396484000118, 27.632190704000038 ], [ 88.808242798000151, 27.619129180000073 ], [ 88.808502198000099, 27.614330292000034 ], [ 88.807975769000166, 27.613639832000104 ], [ 88.80548858700007, 27.60325050300014 ], [ 88.80195617600009, 27.59984016400017 ], [ 88.800956727000084, 27.599611283000115 ], [ 88.800987244000055, 27.599180222000086 ], [ 88.800460816000168, 27.599172592000173 ], [ 88.800460816000168, 27.59871101300007 ], [ 88.797897339000087, 27.596460343 ], [ 88.797409058000085, 27.596460343 ], [ 88.79741668600019, 27.596002579000128 ], [ 88.794570923000038, 27.593999862000089 ], [ 88.79406738199998, 27.593999862000089 ], [ 88.792808533000198, 27.591989518 ], [ 88.79177856400014, 27.590610504000153 ], [ 88.788536072000113, 27.588069917000155 ], [ 88.787269593000019, 27.585571290000075 ], [ 88.785575866000158, 27.576280594000025 ], [ 88.784812928000065, 27.575380325000026 ], [ 88.783683777000192, 27.574480058000063 ], [ 88.782279969, 27.57336044300007 ], [ 88.768478393000066, 27.567998886000112 ], [ 88.768226623000032, 27.56789970400007 ], [ 88.768226623000032, 27.567438125000137 ], [ 88.767326356000069, 27.566772461000141 ], [ 88.767066956000122, 27.564960479000149 ], [ 88.767868042000146, 27.559970855000131 ], [ 88.768402099000184, 27.559749603000114 ], [ 88.768913268000119, 27.559522629000185 ], [ 88.773117065, 27.544509888000107 ], [ 88.775100708000082, 27.537599564000175 ], [ 88.775543214000152, 27.537282945000186 ], [ 88.776359557000092, 27.536720276000096 ], [ 88.779136656999981, 27.534009934000153 ], [ 88.779907226000091, 27.532651902000055 ], [ 88.779876709000121, 27.532220840000093 ], [ 88.784248352000077, 27.52951812800012 ], [ 88.786018372000171, 27.529060364000088 ], [ 88.787033082000107, 27.529300690000071 ], [ 88.788063050000062, 27.529069899999968 ], [ 88.788566589000084, 27.528600693000158 ], [ 88.788948059000177, 27.526130677000083 ], [ 88.788825989000031, 27.52501106200009 ], [ 88.787689208000188, 27.524530412000104 ], [ 88.786987305000139, 27.520839692000095 ], [ 88.786666869999976, 27.519172669000056 ], [ 88.78617095900006, 27.515100480000058 ], [ 88.786132812000062, 27.513629914000035 ], [ 88.786026000000106, 27.511489868000069 ], [ 88.785171510000055, 27.506460190000098 ], [ 88.783226014000036, 27.496480943000165 ], [ 88.783332824000183, 27.494529724000131 ], [ 88.784286499000132, 27.493730546000052 ], [ 88.785011292000149, 27.492979051000134 ], [ 88.785552978, 27.492418290000046 ], [ 88.785430907000148, 27.487672805000045 ], [ 88.785240173000147, 27.487253190000047 ], [ 88.784744262000061, 27.486164094000173 ], [ 88.783905030000085, 27.484327316000076 ], [ 88.783157348000032, 27.482700347000048 ], [ 88.782592774000079, 27.479583741000056 ], [ 88.782318116000056, 27.47806549000012 ], [ 88.781440735000047, 27.473190309000074 ], [ 88.781440735000047, 27.472532273000184 ], [ 88.781455993000066, 27.467758179000043 ], [ 88.782165527000132, 27.463256836000028 ], [ 88.783386231000065, 27.455551147000051 ], [ 88.784286499000132, 27.453990937000128 ], [ 88.787338256000112, 27.452421188000187 ], [ 88.787368775000061, 27.451299668000104 ], [ 88.787597656000116, 27.450170518000107 ], [ 88.792434693000189, 27.448026657000128 ], [ 88.79473114000001, 27.447010040000123 ], [ 88.794593811000141, 27.44495010300011 ], [ 88.794021607000047, 27.436609267000108 ], [ 88.794906616000162, 27.432769775 ], [ 88.795005798000034, 27.432649612000091 ], [ 88.796531677000075, 27.430780411000114 ], [ 88.800323487000071, 27.428701401000183 ], [ 88.803169250999986, 27.427139283000088 ], [ 88.804069518000176, 27.425331116000166 ], [ 88.80407714800009, 27.425090790000127 ], [ 88.80600738600009, 27.414239884000096 ], [ 88.807121276000089, 27.411199569000189 ], [ 88.808059692000086, 27.408641816 ], [ 88.809326172000056, 27.405189515000131 ], [ 88.810096740000063, 27.404758454000046 ], [ 88.810096740000063, 27.404300691000117 ], [ 88.811363220000032, 27.403181076000124 ], [ 88.811759947999974, 27.403020858000161 ], [ 88.811759947999974, 27.402561189000039 ], [ 88.817451477000077, 27.40071106 ], [ 88.819206237000174, 27.399322510000047 ], [ 88.819259644000056, 27.399255752000045 ], [ 88.819320678000111, 27.399183273000176 ], [ 88.820838929000047, 27.397369386000094 ], [ 88.821701049000183, 27.395719529000132 ], [ 88.822380066000107, 27.394081117000098 ], [ 88.825363158000016, 27.391439438000077 ], [ 88.825363158000016, 27.390991212000131 ], [ 88.825363158000016, 27.390560150000169 ], [ 88.831199647000062, 27.388750077000054 ], [ 88.832717895000087, 27.38651085000015 ], [ 88.833168029000035, 27.38651085000015 ], [ 88.833496094000054, 27.38651085000015 ], [ 88.833488464000141, 27.386051178000116 ], [ 88.834236144000045, 27.385839463000082 ], [ 88.834442139000089, 27.384607315000096 ], [ 88.834732055000131, 27.382900238 ], [ 88.835517884000183, 27.38244056700006 ], [ 88.838310242000148, 27.378829957000107 ], [ 88.839828491000105, 27.378158570000096 ], [ 88.84134674, 27.37770080700011 ], [ 88.842346192000093, 27.377941133000093 ], [ 88.844116212000188, 27.379079819000026 ], [ 88.844512940000186, 27.37973022400007 ], [ 88.847183228000119, 27.380859375000171 ], [ 88.848297120000097, 27.382680893000042 ], [ 88.848358153000106, 27.382768632000136 ], [ 88.848953246, 27.383600236000177 ], [ 88.852706909000176, 27.386329651000153 ], [ 88.856536864000077, 27.386779785000101 ], [ 88.858833314000037, 27.385869980000052 ], [ 88.861633300000051, 27.383619309000096 ], [ 88.862136841000051, 27.382509232000189 ], [ 88.86313629100016, 27.380680084000176 ], [ 88.864662170000031, 27.379770279000127 ], [ 88.867218017000198, 27.36824989400003 ], [ 88.868751526000153, 27.367361070000186 ], [ 88.869422913000051, 27.367181779000191 ], [ 88.870468139000195, 27.366886140000133 ], [ 88.879150391, 27.364440918000184 ], [ 88.879249573000038, 27.364374160000125 ], [ 88.880989075000116, 27.363189697000109 ], [ 88.883209229000101, 27.357660293000038 ], [ 88.885063171000013, 27.346809387000178 ], [ 88.885612488999982, 27.3455085760001 ], [ 88.888610840000183, 27.338441849000048 ], [ 88.88910675, 27.338220597000088 ], [ 88.889862061000088, 27.336400986000058 ], [ 88.893936157000041, 27.333940506000033 ], [ 88.893951417000039, 27.333469392000154 ], [ 88.895996093000122, 27.333051682000018 ], [ 88.897148132000098, 27.333395005000114 ], [ 88.900543213000105, 27.33440971300007 ], [ 88.90693664600019, 27.330673218000072 ], [ 88.907867432000103, 27.330129623000118 ], [ 88.909164428000111, 27.330415726000069 ], [ 88.911949158000141, 27.331029892000117 ], [ 88.914161682000042, 27.330200196000192 ], [ 88.915359498000043, 27.329633712000032 ], [ 88.919456482000101, 27.327699661000167 ], [ 88.919631958000082, 27.326904297000056 ], [ 88.919380189000094, 27.32462120200006 ] ] ] ] } }
]
}
